{
 "type": "FeatureCollection",
 "properties": {
  "region": "cebu",
  "franchise": "VECO",
  "source": "OpenStreetMap via Overpass API",
  "license": "ODbL"
 },
 "features": [
  {
   "type": "Feature",
   "properties": {
    "name": "Cebu City",
    "osm_id": 12455830,
    "admin_level": "6",
    "region": "cebu",
    "franchise": "VECO"
   },
   "geometry": {
    "type": "Polygon",
    "coordinates": [
     [
      [
       123.7533688,
       10.39684
      ],
      [
       123.788527,
       10.4224271
      ],
      [
       123.8892623,
       10.4957531
      ],
      [
       123.8891341,
       10.4953834
      ],
      [
       123.888835,
       10.4946943
      ],
      [
       123.8887709,
       10.4941061
      ],
      [
       123.8892435,
       10.4932303
      ],
      [
       123.8896093,
       10.4923271
      ],
      [
       123.8896239,
       10.4920615
      ],
      [
       123.8894888,
       10.4918175
      ],
      [
       123.8894487,
       10.4915483
      ],
      [
       123.8895436,
       10.4910603
      ],
      [
       123.8898684,
       10.4905794
      ],
      [
       123.8901239,
       10.4902707
      ],
      [
       123.8905801,
       10.4896606
      ],
      [
       123.8912079,
       10.4889788
      ],
      [
       123.8916714,
       10.4883399
      ],
      [
       123.9062118,
       10.4881073
      ],
      [
       123.9181423,
       10.4820307
      ],
      [
       123.9183823,
       10.4753539
      ],
      [
       123.9187174,
       10.4751994
      ],
      [
       123.9193006,
       10.4747397
      ],
      [
       123.919375,
       10.4745038
      ],
      [
       123.9191186,
       10.4738693
      ],
      [
       123.9187008,
       10.4730558
      ],
      [
       123.9186677,
       10.4726572
      ],
      [
       123.9189076,
       10.4723563
      ],
      [
       123.9194123,
       10.4719576
      ],
      [
       123.9199996,
       10.4715631
      ],
      [
       123.9208351,
       10.471075
      ],
      [
       123.9216376,
       10.4710425
      ],
      [
       123.9226013,
       10.471075
      ],
      [
       123.9230067,
       10.4712987
      ],
      [
       123.9232921,
       10.4717705
      ],
      [
       123.9233459,
       10.4723074
      ],
      [
       123.9231887,
       10.4728931
      ],
      [
       123.9232507,
       10.4733324
      ],
      [
       123.9234989,
       10.4734992
      ],
      [
       123.9239332,
       10.4735155
      ],
      [
       123.9230883,
       10.397547
      ],
      [
       123.9231419,
       10.3903078
      ],
      [
       123.9235604,
       10.3883977
      ],
      [
       123.9238988,
       10.3852819
      ],
      [
       123.9243758,
       10.381116
      ],
      [
       123.9244616,
       10.378636
      ],
      [
       123.9246333,
       10.3770319
      ],
      [
       123.9257705,
       10.3749951
      ],
      [
       123.9259463,
       10.3732975
      ],
      [
       123.9261782,
       10.3710587
      ],
      [
       123.9258456,
       10.3697606
      ],
      [
       123.9250356,
       10.366613
      ],
      [
       123.9252341,
       10.3661406
      ],
      [
       123.9233351,
       10.3645154
      ],
      [
       123.921994,
       10.3618453
      ],
      [
       123.9204383,
       10.3581303
      ],
      [
       123.9195371,
       10.3567794
      ],
      [
       123.9187105,
       10.3546036
      ],
      [
       123.9185684,
       10.3542388
      ],
      [
       123.9183176,
       10.3537182
      ],
      [
       123.9181786,
       10.3535637
      ],
      [
       123.9164793,
       10.3509535
      ],
      [
       123.9149988,
       10.3472701
      ],
      [
       123.9132613,
       10.3412192
      ],
      [
       123.9128476,
       10.3398028
      ],
      [
       123.9143953,
       10.3392381
      ],
      [
       123.9145522,
       10.3391141
      ],
      [
       123.9148915,
       10.3389492
      ],
      [
       123.9151396,
       10.3388594
      ],
      [
       123.9156291,
       10.3386734
      ],
      [
       123.9160381,
       10.3383752
      ],
      [
       123.9164123,
       10.3383014
      ],
      [
       123.917013,
       10.338105
      ],
      [
       123.9173169,
       10.337302
      ],
      [
       123.9173745,
       10.3372195
      ],
      [
       123.9174776,
       10.3370138
      ],
      [
       123.9178325,
       10.336862
      ],
      [
       123.9180786,
       10.3366139
      ],
      [
       123.9181873,
       10.3365664
      ],
      [
       123.9182752,
       10.3367182
      ],
      [
       123.9190874,
       10.3363799
      ],
      [
       123.9190449,
       10.3363065
      ],
      [
       123.919171,
       10.3362563
      ],
      [
       123.9193151,
       10.3364207
      ],
      [
       123.9194318,
       10.3363652
      ],
      [
       123.9195089,
       10.3362247
      ],
      [
       123.919622,
       10.3362647
      ],
      [
       123.91969,
       10.3366258
      ],
      [
       123.9199287,
       10.3365651
      ],
      [
       123.9199609,
       10.3364411
      ],
      [
       123.9200924,
       10.3364103
      ],
      [
       123.9202909,
       10.336309
      ],
      [
       123.9204785,
       10.3366166
      ],
      [
       123.9202599,
       10.3368039
      ],
      [
       123.920504,
       10.3370256
      ],
      [
       123.920783,
       10.336924
      ],
      [
       123.9209908,
       10.33742
      ],
      [
       123.9212698,
       10.3372921
      ],
      [
       123.9214467,
       10.3374016
      ],
      [
       123.9217626,
       10.3373204
      ],
      [
       123.9217754,
       10.3371047
      ],
      [
       123.9219524,
       10.3370216
      ],
      [
       123.9220275,
       10.3367472
      ],
      [
       123.9219967,
       10.336635
      ],
      [
       123.9219604,
       10.3365044
      ],
      [
       123.9219873,
       10.3364569
      ],
      [
       123.9221844,
       10.3363646
      ],
      [
       123.9222018,
       10.3362933
      ],
      [
       123.9222394,
       10.3358553
      ],
      [
       123.9220986,
       10.3356666
      ],
      [
       123.9225599,
       10.3354094
      ],
      [
       123.9226377,
       10.3351851
      ],
      [
       123.9228389,
       10.3350875
      ],
      [
       123.922745,
       10.3348526
      ],
      [
       123.9229381,
       10.334726
      ],
      [
       123.9229683,
       10.3345324
      ],
      [
       123.9229012,
       10.3345075
      ],
      [
       123.9225351,
       10.3343149
      ],
      [
       123.9225365,
       10.3342258
      ],
      [
       123.9226229,
       10.333962
      ],
      [
       123.9222568,
       10.3335557
      ],
      [
       123.9221214,
       10.3333842
      ],
      [
       123.9219631,
       10.3332127
      ],
      [
       123.922118,
       10.3330418
      ],
      [
       123.9217653,
       10.3329462
      ],
      [
       123.9217218,
       10.3325668
      ],
      [
       123.9219652,
       10.3324573
      ],
      [
       123.9215299,
       10.3319382
      ],
      [
       123.921709,
       10.3316974
      ],
      [
       123.9215789,
       10.3315925
      ],
      [
       123.9215782,
       10.3311937
      ],
      [
       123.9215823,
       10.3310423
      ],
      [
       123.9215669,
       10.3309717
      ],
      [
       123.9214494,
       10.331004
      ],
      [
       123.9211467,
       10.3310396
      ],
      [
       123.9211299,
       10.3310262
      ],
      [
       123.9212269,
       10.3308507
      ],
      [
       123.9212387,
       10.33076
      ],
      [
       123.9212088,
       10.3306593
      ],
      [
       123.9210231,
       10.3302666
      ],
      [
       123.9209795,
       10.3302899
      ],
      [
       123.920872,
       10.3303485
      ],
      [
       123.9207602,
       10.3300996
      ],
      [
       123.9205926,
       10.3301062
      ],
      [
       123.9203753,
       10.3298898
      ],
      [
       123.9202673,
       10.3300739
      ],
      [
       123.9201915,
       10.3297665
      ],
      [
       123.9200453,
       10.329653
      ],
      [
       123.9199904,
       10.3296306
      ],
      [
       123.9198831,
       10.3295857
      ],
      [
       123.9198643,
       10.329343
      ],
      [
       123.9200869,
       10.3292876
      ],
      [
       123.9200091,
       10.3291081
      ],
      [
       123.9198107,
       10.3290131
      ],
      [
       123.9197838,
       10.3289234
      ],
      [
       123.9199117,
       10.3286099
      ],
      [
       123.9198604,
       10.3284766
      ],
      [
       123.9199255,
       10.3283056
      ],
      [
       123.9199173,
       10.328171
      ],
      [
       123.9197939,
       10.3280115
      ],
      [
       123.9195828,
       10.3279227
      ],
      [
       123.9195323,
       10.3278373
      ],
      [
       123.919562,
       10.3277742
      ],
      [
       123.9196826,
       10.327648
      ],
      [
       123.9198006,
       10.3275638
      ],
      [
       123.9198688,
       10.3275678
      ],
      [
       123.9199654,
       10.3276408
      ],
      [
       123.9200574,
       10.3276386
      ],
      [
       123.920192,
       10.3275812
      ],
      [
       123.9203738,
       10.3274466
      ],
      [
       123.9206476,
       10.3273384
      ],
      [
       123.9208024,
       10.3272523
      ],
      [
       123.9209197,
       10.3271619
      ],
      [
       123.9209499,
       10.3271025
      ],
      [
       123.9209383,
       10.3270539
      ],
      [
       123.920903,
       10.3268338
      ],
      [
       123.9209148,
       10.326765
      ],
      [
       123.9209662,
       10.3267312
      ],
      [
       123.9210723,
       10.3267237
      ],
      [
       123.9211874,
       10.3267117
      ],
      [
       123.9212233,
       10.3266772
      ],
      [
       123.921223,
       10.3266132
      ],
      [
       123.9211961,
       10.3265361
      ],
      [
       123.9211044,
       10.3264313
      ],
      [
       123.9210595,
       10.3263673
      ],
      [
       123.9209989,
       10.3263298
      ],
      [
       123.9209293,
       10.3263298
      ],
      [
       123.9208604,
       10.3263151
      ],
      [
       123.9208043,
       10.3262775
      ],
      [
       123.9207863,
       10.3262334
      ],
      [
       123.9207975,
       10.326134
      ],
      [
       123.9208379,
       10.3260369
      ],
      [
       123.920894,
       10.3259486
      ],
      [
       123.9210085,
       10.325847
      ],
      [
       123.921078,
       10.3258029
      ],
      [
       123.921096,
       10.3257543
      ],
      [
       123.921078,
       10.3256969
      ],
      [
       123.9210309,
       10.325655
      ],
      [
       123.9209524,
       10.3256307
      ],
      [
       123.9207886,
       10.3256196
      ],
      [
       123.9207235,
       10.3255998
      ],
      [
       123.9207033,
       10.3255556
      ],
      [
       123.920719,
       10.3254916
      ],
      [
       123.9207908,
       10.3253613
      ],
      [
       123.9208065,
       10.3252995
      ],
      [
       123.9207998,
       10.3252222
      ],
      [
       123.9207639,
       10.3251737
      ],
      [
       123.9206763,
       10.3250831
      ],
      [
       123.9205575,
       10.3249962
      ],
      [
       123.9204071,
       10.3247586
      ],
      [
       123.9203846,
       10.324688
      ],
      [
       123.9203936,
       10.3246129
      ],
      [
       123.9204205,
       10.3245467
      ],
      [
       123.9204834,
       10.3245003
      ],
      [
       123.9206057,
       10.3244788
      ],
      [
       123.9207345,
       10.3244743
      ],
      [
       123.9207975,
       10.3244208
      ],
      [
       123.9208604,
       10.3243281
      ],
      [
       123.9208716,
       10.324231
      ],
      [
       123.9208626,
       10.3241449
      ],
      [
       123.9208155,
       10.3240897
      ],
      [
       123.9207302,
       10.3240565
      ],
      [
       123.920627,
       10.3240521
      ],
      [
       123.9205305,
       10.32403
      ],
      [
       123.9204856,
       10.3239528
      ],
      [
       123.9204946,
       10.3238645
      ],
      [
       123.9205098,
       10.3238319
      ],
      [
       123.9205327,
       10.3237828
      ],
      [
       123.9206472,
       10.3236415
      ],
      [
       123.9206562,
       10.3235377
      ],
      [
       123.9206292,
       10.3234649
      ],
      [
       123.9205664,
       10.3234163
      ],
      [
       123.9204183,
       10.3233214
      ],
      [
       123.9203397,
       10.3232353
      ],
      [
       123.9203308,
       10.3231646
      ],
      [
       123.9203465,
       10.3227341
      ],
      [
       123.9203913,
       10.3223367
      ],
      [
       123.9203913,
       10.3221733
      ],
      [
       123.9204183,
       10.3220651
      ],
      [
       123.9204766,
       10.3219371
      ],
      [
       123.9205058,
       10.3218201
      ],
      [
       123.9205193,
       10.3216766
      ],
      [
       123.9205327,
       10.3214668
      ],
      [
       123.9206315,
       10.3212372
      ],
      [
       123.9207212,
       10.3210805
      ],
      [
       123.9207908,
       10.3209524
      ],
      [
       123.92082,
       10.3208751
      ],
      [
       123.920802,
       10.3208266
      ],
      [
       123.9207414,
       10.320789
      ],
      [
       123.9206135,
       10.3207537
      ],
      [
       123.9204878,
       10.3207383
      ],
      [
       123.9204003,
       10.3207029
      ],
      [
       123.9203218,
       10.3206455
      ],
      [
       123.9202567,
       10.3206433
      ],
      [
       123.9201939,
       10.3207007
      ],
      [
       123.9201714,
       10.3207648
      ],
      [
       123.9201692,
       10.3208774
      ],
      [
       123.9201288,
       10.320937
      ],
      [
       123.9200615,
       10.3209833
      ],
      [
       123.9199897,
       10.3209922
      ],
      [
       123.9198842,
       10.3209789
      ],
      [
       123.9197944,
       10.3209348
      ],
      [
       123.9195835,
       10.3207957
      ],
      [
       123.9195132,
       10.3207084
      ],
      [
       123.9194769,
       10.3206366
      ],
      [
       123.9194349,
       10.3205706
      ],
      [
       123.9194241,
       10.3204358
      ],
      [
       123.9193927,
       10.3203409
      ],
      [
       123.9193052,
       10.3202636
      ],
      [
       123.9192491,
       10.3201929
      ],
      [
       123.9192491,
       10.3201179
      ],
      [
       123.9192581,
       10.3200229
      ],
      [
       123.9192725,
       10.3199563
      ],
      [
       123.9192631,
       10.3199122
      ],
      [
       123.9192205,
       10.3198728
      ],
      [
       123.9192003,
       10.3198507
      ],
      [
       123.9189349,
       10.3198419
      ],
      [
       123.9188676,
       10.3198088
      ],
      [
       123.9188474,
       10.3197315
      ],
      [
       123.9189161,
       10.3194489
      ],
      [
       123.9188818,
       10.3191914
      ],
      [
       123.9190167,
       10.3189607
      ],
      [
       123.919113,
       10.3187309
      ],
      [
       123.9191864,
       10.3185794
      ],
      [
       123.9197717,
       10.3179724
      ],
      [
       123.9200076,
       10.3176869
      ],
      [
       123.9202031,
       10.3173965
      ],
      [
       123.9201191,
       10.3169881
      ],
      [
       123.9200452,
       10.3167688
      ],
      [
       123.9200947,
       10.3166836
      ],
      [
       123.9201676,
       10.3166249
      ],
      [
       123.9203799,
       10.3165368
      ],
      [
       123.9207082,
       10.3164438
      ],
      [
       123.9207712,
       10.3164128
      ],
      [
       123.9208044,
       10.3163573
      ],
      [
       123.9207977,
       10.3162855
      ],
      [
       123.9207497,
       10.316217
      ],
      [
       123.920591,
       10.3161512
      ],
      [
       123.9203709,
       10.3161004
      ],
      [
       123.9202882,
       10.3160854
      ],
      [
       123.9200489,
       10.3160597
      ],
      [
       123.9189389,
       10.3152016
      ],
      [
       123.9186918,
       10.3147459
      ],
      [
       123.9186882,
       10.3146981
      ],
      [
       123.9187109,
       10.3146538
      ],
      [
       123.9188156,
       10.3145591
      ],
      [
       123.9190368,
       10.314472
      ],
      [
       123.9197946,
       10.3143467
      ],
      [
       123.9200507,
       10.3142662
      ],
      [
       123.9202881,
       10.3142978
      ],
      [
       123.9205281,
       10.3143678
      ],
      [
       123.9207843,
       10.3144179
      ],
      [
       123.9212711,
       10.3146158
      ],
      [
       123.9218236,
       10.3148705
      ],
      [
       123.9220878,
       10.314951
      ],
      [
       123.922352,
       10.3149101
      ],
      [
       123.922395,
       10.3148573
      ],
      [
       123.922395,
       10.3147676
      ],
      [
       123.9224674,
       10.3145881
      ],
      [
       123.9226015,
       10.3143717
      ],
      [
       123.9227758,
       10.3142002
      ],
      [
       123.9228792,
       10.314136
      ],
      [
       123.9230253,
       10.3140485
      ],
      [
       123.9236467,
       10.3133441
      ],
      [
       123.9238688,
       10.3130774
      ],
      [
       123.9241907,
       10.3126736
      ],
      [
       123.9254674,
       10.3112183
      ],
      [
       123.9260763,
       10.3105651
      ],
      [
       123.9302169,
       10.3058879
      ],
      [
       123.9265108,
       10.3026326
      ],
      [
       123.9191722,
       10.2996347
      ],
      [
       123.9166402,
       10.2971012
      ],
      [
       123.9160394,
       10.2943567
      ],
      [
       123.9158248,
       10.291781
      ],
      [
       123.9144945,
       10.2808867
      ],
      [
       123.9146232,
       10.2720613
      ],
      [
       123.9157819,
       10.2681764
      ],
      [
       123.8958263,
       10.2555077
      ],
      [
       123.8928222,
       10.2536074
      ],
      [
       123.8896035,
       10.2463015
      ],
      [
       123.8731134,
       10.2597412
      ],
      [
       123.8719654,
       10.2606808
      ],
      [
       123.8693154,
       10.2629506
      ],
      [
       123.8689677,
       10.2626568
      ],
      [
       123.868766,
       10.2625392
      ],
      [
       123.8682685,
       10.2625289
      ],
      [
       123.8682219,
       10.2625546
      ],
      [
       123.868107,
       10.262618
      ],
      [
       123.8676377,
       10.2623818
      ],
      [
       123.8674566,
       10.2623976
      ],
      [
       123.8672742,
       10.2626833
      ],
      [
       123.8663246,
       10.263093
      ],
      [
       123.8651633,
       10.2637231
      ],
      [
       123.8649439,
       10.2638008
      ],
      [
       123.8648215,
       10.2638528
      ],
      [
       123.8642591,
       10.2639765
      ],
      [
       123.8637795,
       10.2640742
      ],
      [
       123.8635744,
       10.2641425
      ],
      [
       123.8634728,
       10.2641641
      ],
      [
       123.8628401,
       10.2642988
      ],
      [
       123.8627144,
       10.2643704
      ],
      [
       123.8621917,
       10.2643476
      ],
      [
       123.8619734,
       10.2643639
      ],
      [
       123.8618411,
       10.2644127
      ],
      [
       123.8617055,
       10.2645624
      ],
      [
       123.8615897,
       10.2646698
      ],
      [
       123.8613548,
       10.264761
      ],
      [
       123.8612457,
       10.2646959
      ],
      [
       123.8609149,
       10.2646731
      ],
      [
       123.8607131,
       10.2646536
      ],
      [
       123.8604849,
       10.2647512
      ],
      [
       123.8603327,
       10.2647838
      ],
      [
       123.8601508,
       10.2647642
      ],
      [
       123.8599589,
       10.2647642
      ],
      [
       123.85981,
       10.2648489
      ],
      [
       123.8591749,
       10.2651483
      ],
      [
       123.8587317,
       10.2654347
      ],
      [
       123.8585994,
       10.2654705
      ],
      [
       123.8582686,
       10.2654054
      ],
      [
       123.8576897,
       10.2653403
      ],
      [
       123.8569818,
       10.2652655
      ],
      [
       123.8561482,
       10.2652394
      ],
      [
       123.8558869,
       10.2652883
      ],
      [
       123.8555793,
       10.265425
      ],
      [
       123.8553676,
       10.2655096
      ],
      [
       123.8551459,
       10.2655259
      ],
      [
       123.854878,
       10.2656398
      ],
      [
       123.8546729,
       10.2658091
      ],
      [
       123.8545902,
       10.2659588
      ],
      [
       123.8545538,
       10.2662127
      ],
      [
       123.8544314,
       10.2664665
      ],
      [
       123.8542638,
       10.2667498
      ],
      [
       123.854041,
       10.2669158
      ],
      [
       123.853363,
       10.2673454
      ],
      [
       123.8526551,
       10.267788
      ],
      [
       123.8519058,
       10.2681656
      ],
      [
       123.851179,
       10.2685465
      ],
      [
       123.8508296,
       10.2686938
      ],
      [
       123.850629,
       10.2687662
      ],
      [
       123.8502371,
       10.2690184
      ],
      [
       123.8501481,
       10.2690968
      ],
      [
       123.8498547,
       10.2693552
      ],
      [
       123.8493009,
       10.2697735
      ],
      [
       123.8490495,
       10.2698028
      ],
      [
       123.8484485,
       10.2698566
      ],
      [
       123.8481938,
       10.2699353
      ],
      [
       123.847948,
       10.2700534
      ],
      [
       123.8477596,
       10.2701581
      ],
      [
       123.8476436,
       10.2703647
      ],
      [
       123.847543,
       10.2708215
      ],
      [
       123.8470901,
       10.2723071
      ],
      [
       123.8470731,
       10.2724808
      ],
      [
       123.8472041,
       10.2725331
      ],
      [
       123.8475589,
       10.2726003
      ],
      [
       123.8476725,
       10.2726956
      ],
      [
       123.8476439,
       10.2728102
      ],
      [
       123.8475233,
       10.273865
      ],
      [
       123.84742,
       10.274068
      ],
      [
       123.8470373,
       10.2742189
      ],
      [
       123.8468421,
       10.2744548
      ],
      [
       123.8467526,
       10.2751914
      ],
      [
       123.8466597,
       10.2754689
      ],
      [
       123.8466053,
       10.2756801
      ],
      [
       123.8463155,
       10.2759857
      ],
      [
       123.8461263,
       10.276057
      ],
      [
       123.8458354,
       10.276128
      ],
      [
       123.8456843,
       10.2761477
      ],
      [
       123.8455926,
       10.2761916
      ],
      [
       123.8455389,
       10.2763012
      ],
      [
       123.845498,
       10.2766268
      ],
      [
       123.8454322,
       10.2768534
      ],
      [
       123.8453619,
       10.2770645
      ],
      [
       123.8452432,
       10.2772289
      ],
      [
       123.8449717,
       10.2776243
      ],
      [
       123.8444873,
       10.2784121
      ],
      [
       123.8442458,
       10.2785955
      ],
      [
       123.8437173,
       10.2787924
      ],
      [
       123.8436371,
       10.2788615
      ],
      [
       123.8435946,
       10.2788978
      ],
      [
       123.8432523,
       10.2791969
      ],
      [
       123.8429399,
       10.2797004
      ],
      [
       123.8423433,
       10.2803526
      ],
      [
       123.8421118,
       10.2805146
      ],
      [
       123.8419475,
       10.280634
      ],
      [
       123.8417211,
       10.2807107
      ],
      [
       123.8414207,
       10.2808055
      ],
      [
       123.8411605,
       10.2806724
      ],
      [
       123.8406503,
       10.280329
      ],
      [
       123.8397576,
       10.280463
      ],
      [
       123.8390975,
       10.2806741
      ],
      [
       123.8384625,
       10.2809689
      ],
      [
       123.8380501,
       10.2813456
      ],
      [
       123.8379254,
       10.2818652
      ],
      [
       123.8378483,
       10.2820141
      ],
      [
       123.8376821,
       10.2820492
      ],
      [
       123.837424,
       10.2819207
      ],
      [
       123.8370027,
       10.2816667
      ],
      [
       123.8366525,
       10.2816463
      ],
      [
       123.8364656,
       10.2818769
      ],
      [
       123.8363202,
       10.2826914
      ],
      [
       123.8361362,
       10.2832724
      ],
      [
       123.835617,
       10.2838826
      ],
      [
       123.8355428,
       10.2840227
      ],
      [
       123.8353025,
       10.2841162
      ],
      [
       123.8346082,
       10.2841629
      ],
      [
       123.8342343,
       10.2842621
      ],
      [
       123.83408,
       10.2845453
      ],
      [
       123.8340681,
       10.284811
      ],
      [
       123.8341957,
       10.2852022
      ],
      [
       123.8343085,
       10.2859087
      ],
      [
       123.8340711,
       10.286297
      ],
      [
       123.8336587,
       10.286697
      ],
      [
       123.832911,
       10.2869802
      ],
      [
       123.832457,
       10.2870969
      ],
      [
       123.8319437,
       10.2873918
      ],
      [
       123.8316143,
       10.2877684
      ],
      [
       123.831282,
       10.2888048
      ],
      [
       123.8309437,
       10.289377
      ],
      [
       123.8306411,
       10.2898033
      ],
      [
       123.8301367,
       10.2900777
      ],
      [
       123.8297064,
       10.2903813
      ],
      [
       123.8290804,
       10.290936
      ],
      [
       123.8285166,
       10.2917155
      ],
      [
       123.8282318,
       10.2922906
      ],
      [
       123.8282585,
       10.2927548
      ],
      [
       123.8281962,
       10.2929621
      ],
      [
       123.8280003,
       10.2930526
      ],
      [
       123.8276739,
       10.2931139
      ],
      [
       123.827303,
       10.2932102
      ],
      [
       123.8270301,
       10.2934438
      ],
      [
       123.826947,
       10.293797
      ],
      [
       123.8156636,
       10.3108719
      ],
      [
       123.8169935,
       10.3127606
      ],
      [
       123.8172712,
       10.3136258
      ],
      [
       123.8180127,
       10.316949
      ],
      [
       123.8178754,
       10.3174649
      ],
      [
       123.8179,
       10.3178517
      ],
      [
       123.818094,
       10.318098
      ],
      [
       123.8186875,
       10.3186795
      ],
      [
       123.8191119,
       10.3189379
      ],
      [
       123.8199781,
       10.3193922
      ],
      [
       123.820579,
       10.3195662
      ],
      [
       123.82076,
       10.3196042
      ],
      [
       123.8209434,
       10.3196428
      ],
      [
       123.821183,
       10.3197906
      ],
      [
       123.8213143,
       10.3200604
      ],
      [
       123.8211822,
       10.3204788
      ],
      [
       123.820997,
       10.3211163
      ],
      [
       123.8205695,
       10.3215465
      ],
      [
       123.820046,
       10.3217863
      ],
      [
       123.8199552,
       10.3218925
      ],
      [
       123.8199429,
       10.3220768
      ],
      [
       123.8201615,
       10.3223665
      ],
      [
       123.8203576,
       10.3226147
      ],
      [
       123.8205971,
       10.3228563
      ],
      [
       123.8206662,
       10.323136
      ],
      [
       123.8209104,
       10.3235999
      ],
      [
       123.8209072,
       10.3238053
      ],
      [
       123.8207187,
       10.3240692
      ],
      [
       123.8201323,
       10.3248434
      ],
      [
       123.8195593,
       10.3255822
      ],
      [
       123.8188217,
       10.326125
      ],
      [
       123.8182059,
       10.326386
      ],
      [
       123.8178558,
       10.3264494
      ],
      [
       123.8175,
       10.326617
      ],
      [
       123.817392,
       10.3267773
      ],
      [
       123.8173229,
       10.3270311
      ],
      [
       123.8170065,
       10.3273439
      ],
      [
       123.8167289,
       10.3274664
      ],
      [
       123.816577,
       10.327491
      ],
      [
       123.8162831,
       10.3276551
      ],
      [
       123.8161603,
       10.3278334
      ],
      [
       123.8161252,
       10.3280709
      ],
      [
       123.8162438,
       10.3286683
      ],
      [
       123.8162272,
       10.3289585
      ],
      [
       123.8161925,
       10.3294153
      ],
      [
       123.815969,
       10.3295774
      ],
      [
       123.8153884,
       10.3294909
      ],
      [
       123.8147581,
       10.3292945
      ],
      [
       123.8145538,
       10.329134
      ],
      [
       123.8143312,
       10.3287868
      ],
      [
       123.8143426,
       10.3284384
      ],
      [
       123.8145093,
       10.3278004
      ],
      [
       123.8144258,
       10.3276001
      ],
      [
       123.8141513,
       10.3275002
      ],
      [
       123.8140378,
       10.3275483
      ],
      [
       123.8137029,
       10.3277254
      ],
      [
       123.8131087,
       10.3282263
      ],
      [
       123.8125163,
       10.3287754
      ],
      [
       123.8119972,
       10.3291574
      ],
      [
       123.8115882,
       10.3292234
      ],
      [
       123.8109156,
       10.3290119
      ],
      [
       123.8104564,
       10.3287963
      ],
      [
       123.8102566,
       10.3287982
      ],
      [
       123.8100479,
       10.3288321
      ],
      [
       123.8098067,
       10.3287333
      ],
      [
       123.8097661,
       10.3284543
      ],
      [
       123.809815,
       10.3280258
      ],
      [
       123.8097519,
       10.3277721
      ],
      [
       123.8093967,
       10.3273681
      ],
      [
       123.8090523,
       10.3273626
      ],
      [
       123.8084893,
       10.3277222
      ],
      [
       123.8082479,
       10.3281114
      ],
      [
       123.8081523,
       10.32853
      ],
      [
       123.765707,
       10.3280078
      ],
      [
       123.765766,
       10.3787943
      ],
      [
       123.7565231,
       10.3951304
      ],
      [
       123.7533688,
       10.39684
      ]
     ]
    ]
   }
  },
  {
   "type": "Feature",
   "properties": {
    "name": "San Fernando",
    "osm_id": 13263379,
    "admin_level": "6",
    "region": "cebu",
    "franchise": "VECO"
   },
   "geometry": {
    "type": "Polygon",
    "coordinates": [
     [
      [
       120.6774367,
       15.0167128
      ],
      [
       120.6771728,
       15.0172541
      ],
      [
       120.6743893,
       15.0166936
      ],
      [
       120.67423,
       15.0175869
      ],
      [
       120.674116,
       15.0180107
      ],
      [
       120.6739563,
       15.018513
      ],
      [
       120.6738608,
       15.0195502
      ],
      [
       120.6738346,
       15.0198263
      ],
      [
       120.6738113,
       15.0202491
      ],
      [
       120.6738551,
       15.0206591
      ],
      [
       120.6738892,
       15.0208181
      ],
      [
       120.6739178,
       15.0210294
      ],
      [
       120.6739765,
       15.0211964
      ],
      [
       120.6739915,
       15.0213227
      ],
      [
       120.6740625,
       15.021506
      ],
      [
       120.6740493,
       15.0215446
      ],
      [
       120.6740428,
       15.0217046
      ],
      [
       120.6740147,
       15.0217635
      ],
      [
       120.673865,
       15.0218337
      ],
      [
       120.6738406,
       15.0220157
      ],
      [
       120.6737947,
       15.0220378
      ],
      [
       120.6736658,
       15.0220814
      ],
      [
       120.6735867,
       15.0221267
      ],
      [
       120.6735154,
       15.0221794
      ],
      [
       120.6733227,
       15.0223638
      ],
      [
       120.6732087,
       15.0224864
      ],
      [
       120.673103,
       15.0225978
      ],
      [
       120.6729897,
       15.0227038
      ],
      [
       120.6725925,
       15.0231162
      ],
      [
       120.6724961,
       15.0232084
      ],
      [
       120.6717736,
       15.0239201
      ],
      [
       120.6716013,
       15.0240948
      ],
      [
       120.6715839,
       15.0241129
      ],
      [
       120.6718114,
       15.0243962
      ],
      [
       120.6716272,
       15.0245374
      ],
      [
       120.6714138,
       15.0242897
      ],
      [
       120.6713585,
       15.0243461
      ],
      [
       120.6711059,
       15.0245981
      ],
      [
       120.6709879,
       15.0247163
      ],
      [
       120.6701418,
       15.0256444
      ],
      [
       120.6698996,
       15.0259651
      ],
      [
       120.6695956,
       15.0264626
      ],
      [
       120.6693121,
       15.0269273
      ],
      [
       120.6691148,
       15.0272429
      ],
      [
       120.6689764,
       15.027432
      ],
      [
       120.6688232,
       15.0276413
      ],
      [
       120.6687601,
       15.0277332
      ],
      [
       120.6686823,
       15.0278362
      ],
      [
       120.6685192,
       15.02805
      ],
      [
       120.6682546,
       15.0284502
      ],
      [
       120.6681757,
       15.028586
      ],
      [
       120.6681408,
       15.028648
      ],
      [
       120.6680047,
       15.0289196
      ],
      [
       120.6679088,
       15.0291846
      ],
      [
       120.6677182,
       15.0297638
      ],
      [
       120.6675841,
       15.0301651
      ],
      [
       120.6674494,
       15.0305945
      ],
      [
       120.6674223,
       15.0307149
      ],
      [
       120.667415,
       15.0307964
      ],
      [
       120.6674124,
       15.0309179
      ],
      [
       120.6674126,
       15.0309789
      ],
      [
       120.6674062,
       15.031172
      ],
      [
       120.6673884,
       15.031345
      ],
      [
       120.66736,
       15.031534
      ],
      [
       120.6673253,
       15.0317037
      ],
      [
       120.667313,
       15.0317555
      ],
      [
       120.6672909,
       15.0318326
      ],
      [
       120.6672338,
       15.0319716
      ],
      [
       120.6672148,
       15.032007
      ],
      [
       120.6671758,
       15.0320808
      ],
      [
       120.6670331,
       15.0323429
      ],
      [
       120.6667728,
       15.032857
      ],
      [
       120.6664496,
       15.0334078
      ],
      [
       120.6662899,
       15.0336209
      ],
      [
       120.6660987,
       15.0338276
      ],
      [
       120.6658354,
       15.0340899
      ],
      [
       120.6656754,
       15.0342563
      ],
      [
       120.6655146,
       15.0344088
      ],
      [
       120.6654195,
       15.0344868
      ],
      [
       120.6649158,
       15.0348277
      ],
      [
       120.6648872,
       15.0348463
      ],
      [
       120.6642324,
       15.0352818
      ],
      [
       120.6641567,
       15.0353212
      ],
      [
       120.664091,
       15.0353504
      ],
      [
       120.6638964,
       15.0354349
      ],
      [
       120.6638382,
       15.0354617
      ],
      [
       120.663776,
       15.035493
      ],
      [
       120.6636761,
       15.0355477
      ],
      [
       120.663499,
       15.0356547
      ],
      [
       120.6632937,
       15.035781
      ],
      [
       120.6628153,
       15.0360861
      ],
      [
       120.6626879,
       15.0361738
      ],
      [
       120.6625652,
       15.036282
      ],
      [
       120.6624302,
       15.0364284
      ],
      [
       120.6622773,
       15.0366102
      ],
      [
       120.6620955,
       15.0368256
      ],
      [
       120.6619016,
       15.0370571
      ],
      [
       120.6616339,
       15.0373885
      ],
      [
       120.6613305,
       15.0377658
      ],
      [
       120.6612896,
       15.0378293
      ],
      [
       120.6611929,
       15.0379956
      ],
      [
       120.6611799,
       15.0380176
      ],
      [
       120.6610262,
       15.038342
      ],
      [
       120.6609556,
       15.0384417
      ],
      [
       120.6609315,
       15.0384791
      ],
      [
       120.6608812,
       15.0385332
      ],
      [
       120.6608196,
       15.0385982
      ],
      [
       120.6606869,
       15.0387067
      ],
      [
       120.6606096,
       15.0387645
      ],
      [
       120.6605351,
       15.038813
      ],
      [
       120.660476,
       15.0388589
      ],
      [
       120.6603109,
       15.0392227
      ],
      [
       120.6598793,
       15.0401452
      ],
      [
       120.659825,
       15.040261
      ],
      [
       120.6597538,
       15.0403626
      ],
      [
       120.6595824,
       15.040521
      ],
      [
       120.6593719,
       15.0406545
      ],
      [
       120.6590422,
       15.0408322
      ],
      [
       120.6581549,
       15.041286
      ],
      [
       120.6578464,
       15.0414094
      ],
      [
       120.6576087,
       15.041484
      ],
      [
       120.6573598,
       15.041553
      ],
      [
       120.657096,
       15.0416222
      ],
      [
       120.6570009,
       15.0416472
      ],
      [
       120.6569087,
       15.0416632
      ],
      [
       120.6567772,
       15.0416706
      ],
      [
       120.6565976,
       15.0416634
      ],
      [
       120.6558366,
       15.0415989
      ],
      [
       120.6556471,
       15.0416317
      ],
      [
       120.6554812,
       15.0416956
      ],
      [
       120.6552742,
       15.0418105
      ],
      [
       120.6551157,
       15.0419216
      ],
      [
       120.6545949,
       15.0424504
      ],
      [
       120.6544514,
       15.0425962
      ],
      [
       120.6542507,
       15.0428313
      ],
      [
       120.6541686,
       15.0429247
      ],
      [
       120.6539802,
       15.04319
      ],
      [
       120.6538604,
       15.0433819
      ],
      [
       120.6535975,
       15.0437807
      ],
      [
       120.6535398,
       15.0439595
      ],
      [
       120.6533631,
       15.0446023
      ],
      [
       120.6533461,
       15.0447346
      ],
      [
       120.6533622,
       15.0448543
      ],
      [
       120.6536071,
       15.0458745
      ],
      [
       120.6536268,
       15.0459556
      ],
      [
       120.6536405,
       15.0460101
      ],
      [
       120.6538899,
       15.0471499
      ],
      [
       120.6539115,
       15.0472795
      ],
      [
       120.6539684,
       15.0476122
      ],
      [
       120.6539758,
       15.0476683
      ],
      [
       120.6539769,
       15.0477139
      ],
      [
       120.6539788,
       15.0477878
      ],
      [
       120.6539778,
       15.04787
      ],
      [
       120.6539293,
       15.0480313
      ],
      [
       120.6538232,
       15.0482364
      ],
      [
       120.6538082,
       15.0482671
      ],
      [
       120.6535661,
       15.0487634
      ],
      [
       120.6534992,
       15.0488816
      ],
      [
       120.6534405,
       15.049005
      ],
      [
       120.6533217,
       15.0492448
      ],
      [
       120.6532871,
       15.0493152
      ],
      [
       120.6532207,
       15.0494574
      ],
      [
       120.6530855,
       15.0498371
      ],
      [
       120.6529738,
       15.0501424
      ],
      [
       120.6528698,
       15.0503996
      ],
      [
       120.652831,
       15.0505026
      ],
      [
       120.6527982,
       15.0505897
      ],
      [
       120.6526546,
       15.0507865
      ],
      [
       120.6524275,
       15.0509904
      ],
      [
       120.6521585,
       15.051249
      ],
      [
       120.6512929,
       15.0519719
      ],
      [
       120.6512308,
       15.0520315
      ],
      [
       120.651023,
       15.0522089
      ],
      [
       120.6508054,
       15.0524508
      ],
      [
       120.650627,
       15.0526113
      ],
      [
       120.6500892,
       15.0530983
      ],
      [
       120.649597,
       15.0535458
      ],
      [
       120.6494666,
       15.0536766
      ],
      [
       120.6493966,
       15.0537545
      ],
      [
       120.6488248,
       15.0541823
      ],
      [
       120.6487197,
       15.05425
      ],
      [
       120.6483173,
       15.0545181
      ],
      [
       120.648099,
       15.0546381
      ],
      [
       120.64767,
       15.0548846
      ],
      [
       120.6474644,
       15.0549875
      ],
      [
       120.64695,
       15.0552648
      ],
      [
       120.6468029,
       15.0553621
      ],
      [
       120.6464106,
       15.0555959
      ],
      [
       120.6462912,
       15.0556742
      ],
      [
       120.6462083,
       15.0557272
      ],
      [
       120.645832,
       15.0559868
      ],
      [
       120.6452696,
       15.0563919
      ],
      [
       120.6451646,
       15.0564737
      ],
      [
       120.6450667,
       15.0565544
      ],
      [
       120.644999,
       15.0565943
      ],
      [
       120.6449226,
       15.0566254
      ],
      [
       120.6448073,
       15.0566306
      ],
      [
       120.6447429,
       15.0566222
      ],
      [
       120.6446457,
       15.0566112
      ],
      [
       120.6445565,
       15.0565924
      ],
      [
       120.6444774,
       15.056571
      ],
      [
       120.6444063,
       15.0565413
      ],
      [
       120.6443439,
       15.0565005
      ],
      [
       120.6442816,
       15.0564461
      ],
      [
       120.6440728,
       15.0562146
      ],
      [
       120.6440495,
       15.0561888
      ],
      [
       120.6438189,
       15.0559481
      ],
      [
       120.6437646,
       15.0559086
      ],
      [
       120.643713,
       15.0558937
      ],
      [
       120.6436526,
       15.0558995
      ],
      [
       120.6435829,
       15.055919
      ],
      [
       120.6434823,
       15.0559559
      ],
      [
       120.6432764,
       15.0560336
      ],
      [
       120.6429921,
       15.0561437
      ],
      [
       120.6426732,
       15.0562736
      ],
      [
       120.6422914,
       15.0564545
      ],
      [
       120.6418084,
       15.0566771
      ],
      [
       120.6407479,
       15.0571719
      ],
      [
       120.6406747,
       15.057203
      ],
      [
       120.6406178,
       15.0572141
      ],
      [
       120.6405634,
       15.0572166
      ],
      [
       120.640519,
       15.0571741
      ],
      [
       120.639545,
       15.0562424
      ],
      [
       120.6393425,
       15.0562134
      ],
      [
       120.6392298,
       15.0562116
      ],
      [
       120.6391946,
       15.0562187
      ],
      [
       120.6391567,
       15.0562355
      ],
      [
       120.639085,
       15.0562796
      ],
      [
       120.6390065,
       15.0563346
      ],
      [
       120.6381791,
       15.0569795
      ],
      [
       120.637774,
       15.0573473
      ],
      [
       120.6370134,
       15.0576866
      ],
      [
       120.6366854,
       15.0581415
      ],
      [
       120.6366247,
       15.058211
      ],
      [
       120.6365067,
       15.0583386
      ],
      [
       120.6364533,
       15.0583971
      ],
      [
       120.6360358,
       15.0588483
      ],
      [
       120.6358964,
       15.0590076
      ],
      [
       120.6358804,
       15.0590327
      ],
      [
       120.6358732,
       15.0590579
      ],
      [
       120.6358784,
       15.0591026
      ],
      [
       120.6348276,
       15.0594057
      ],
      [
       120.6346585,
       15.0596617
      ],
      [
       120.6341224,
       15.0604219
      ],
      [
       120.6335278,
       15.0613566
      ],
      [
       120.6333497,
       15.0616365
      ],
      [
       120.6332033,
       15.0618667
      ],
      [
       120.6329895,
       15.0622027
      ],
      [
       120.6321713,
       15.0618236
      ],
      [
       120.6319606,
       15.0617242
      ],
      [
       120.6316524,
       15.061585
      ],
      [
       120.6314788,
       15.061498
      ],
      [
       120.6310061,
       15.0612612
      ],
      [
       120.630963,
       15.0612426
      ],
      [
       120.6306451,
       15.061079
      ],
      [
       120.6305961,
       15.0610538
      ],
      [
       120.6304814,
       15.0609947
      ],
      [
       120.630363,
       15.0609114
      ],
      [
       120.6302821,
       15.0608528
      ],
      [
       120.629679,
       15.0604154
      ],
      [
       120.6294362,
       15.0602419
      ],
      [
       120.6289561,
       15.0598767
      ],
      [
       120.6285779,
       15.0596073
      ],
      [
       120.6282922,
       15.0594403
      ],
      [
       120.6281105,
       15.0593588
      ],
      [
       120.6264174,
       15.0583045
      ],
      [
       120.6263906,
       15.058377
      ],
      [
       120.6263369,
       15.0584819
      ],
      [
       120.62629,
       15.0585428
      ],
      [
       120.6261532,
       15.0587059
      ],
      [
       120.6259976,
       15.0588536
      ],
      [
       120.6257549,
       15.0590932
      ],
      [
       120.6255041,
       15.0593224
      ],
      [
       120.6253244,
       15.0594765
      ],
      [
       120.6251152,
       15.059619
      ],
      [
       120.6249274,
       15.0597329
      ],
      [
       120.624855,
       15.059808
      ],
      [
       120.624788,
       15.059922
      ],
      [
       120.6247209,
       15.0601396
      ],
      [
       120.6246659,
       15.0603299
      ],
      [
       120.6246337,
       15.060405
      ],
      [
       120.6245707,
       15.0605151
      ],
      [
       120.624513,
       15.060563
      ],
      [
       120.6244232,
       15.06062
      ],
      [
       120.6241697,
       15.0607482
      ],
      [
       120.6239189,
       15.0608751
      ],
      [
       120.6237151,
       15.0609567
      ],
      [
       120.6235555,
       15.0610085
      ],
      [
       120.6234093,
       15.0610707
      ],
      [
       120.6233463,
       15.0610824
      ],
      [
       120.6232993,
       15.0610811
      ],
      [
       120.623239,
       15.06105
      ],
      [
       120.6231545,
       15.0609904
      ],
      [
       120.6230606,
       15.0609736
      ],
      [
       120.6229694,
       15.0609787
      ],
      [
       120.6228876,
       15.0609943
      ],
      [
       120.6228393,
       15.0610254
      ],
      [
       120.6227589,
       15.0611186
      ],
      [
       120.6226476,
       15.0612365
      ],
      [
       120.6224652,
       15.0614152
      ],
      [
       120.6221782,
       15.0616405
      ],
      [
       120.6220521,
       15.0617363
      ],
      [
       120.6219193,
       15.0618387
      ],
      [
       120.6217852,
       15.0619099
      ],
      [
       120.621576,
       15.0619759
      ],
      [
       120.6214057,
       15.0620096
      ],
      [
       120.621171,
       15.062029
      ],
      [
       120.6210691,
       15.0620601
      ],
      [
       120.6210101,
       15.0620938
      ],
      [
       120.6208733,
       15.0621948
      ],
      [
       120.620766,
       15.0622841
      ],
      [
       120.6205165,
       15.0625289
      ],
      [
       120.6204388,
       15.0625872
      ],
      [
       120.6203891,
       15.0626183
      ],
      [
       120.6201987,
       15.0626532
      ],
      [
       120.6200673,
       15.0626675
      ],
      [
       120.6199613,
       15.0626973
      ],
      [
       120.6198902,
       15.0627374
      ],
      [
       120.6198433,
       15.0627698
      ],
      [
       120.6197548,
       15.0628527
      ],
      [
       120.6197119,
       15.0629122
      ],
      [
       120.6196435,
       15.0630314
      ],
      [
       120.6195952,
       15.0631583
      ],
      [
       120.6195027,
       15.0633979
      ],
      [
       120.6194329,
       15.0635869
      ],
      [
       120.619272,
       15.0639055
      ],
      [
       120.6191754,
       15.0641878
      ],
      [
       120.6191727,
       15.0644624
      ],
      [
       120.6191835,
       15.0646955
      ],
      [
       120.6191667,
       15.0648765
      ],
      [
       120.619095,
       15.0650555
      ],
      [
       120.6190628,
       15.0651876
      ],
      [
       120.6190762,
       15.0654026
      ],
      [
       120.619154,
       15.0656123
      ],
      [
       120.6192559,
       15.0657574
      ],
      [
       120.6194168,
       15.0658454
      ],
      [
       120.6196153,
       15.065905
      ],
      [
       120.6196985,
       15.066019
      ],
      [
       120.619728,
       15.0661821
      ],
      [
       120.6196824,
       15.066322
      ],
      [
       120.6195134,
       15.0664023
      ],
      [
       120.6193243,
       15.0664865
      ],
      [
       120.6192036,
       15.0665758
      ],
      [
       120.6191084,
       15.0666639
      ],
      [
       120.6187972,
       15.0670433
      ],
      [
       120.6187074,
       15.0671404
      ],
      [
       120.6186269,
       15.0672013
      ],
      [
       120.6182876,
       15.0674266
      ],
      [
       120.6179859,
       15.0676066
      ],
      [
       120.6176412,
       15.0678346
      ],
      [
       120.6174964,
       15.0679304
      ],
      [
       120.6174146,
       15.0680055
      ],
      [
       120.6173153,
       15.068135
      ],
      [
       120.6172469,
       15.0682205
      ],
      [
       120.6171624,
       15.0682917
      ],
      [
       120.6170847,
       15.068337
      ],
      [
       120.6170069,
       15.0683888
      ],
      [
       120.6169076,
       15.0684963
      ],
      [
       120.6167172,
       15.0687139
      ],
      [
       120.6166287,
       15.0688304
      ],
      [
       120.6165522,
       15.0689431
      ],
      [
       120.6164423,
       15.0690402
      ],
      [
       120.6163001,
       15.0691451
      ],
      [
       120.6161392,
       15.069237
      ],
      [
       120.6159206,
       15.0693665
      ],
      [
       120.6158066,
       15.0694507
      ],
      [
       120.6157181,
       15.0695504
      ],
      [
       120.6156617,
       15.0696579
      ],
      [
       120.6156255,
       15.0698159
      ],
      [
       120.6156188,
       15.0699635
      ],
      [
       120.6156202,
       15.0701617
      ],
      [
       120.6156269,
       15.0703158
      ],
      [
       120.6156483,
       15.0704414
      ],
      [
       120.6156738,
       15.0705463
      ],
      [
       120.6156859,
       15.0706654
      ],
      [
       120.615655,
       15.0707392
      ],
      [
       120.6155893,
       15.0708338
      ],
      [
       120.6154713,
       15.0709296
      ],
      [
       120.6152272,
       15.0709762
      ],
      [
       120.6148785,
       15.0709322
      ],
      [
       120.6143582,
       15.0709115
      ],
      [
       120.6142884,
       15.0709425
      ],
      [
       120.6142455,
       15.0710073
      ],
      [
       120.6141946,
       15.0712481
      ],
      [
       120.6141677,
       15.071388
      ],
      [
       120.6141061,
       15.0714968
      ],
      [
       120.6138673,
       15.071748
      ],
      [
       120.6137091,
       15.0719552
      ],
      [
       120.6136635,
       15.0720769
      ],
      [
       120.6136715,
       15.0722349
      ],
      [
       120.6137064,
       15.0725172
      ],
      [
       120.6137547,
       15.0735765
      ],
      [
       120.613744,
       15.0737034
      ],
      [
       120.6137252,
       15.0738277
      ],
      [
       120.6137051,
       15.0739352
      ],
      [
       120.6136125,
       15.0741087
      ],
      [
       120.6135495,
       15.074202
      ],
      [
       120.6134945,
       15.0742719
      ],
      [
       120.6134127,
       15.0743379
      ],
      [
       120.6133255,
       15.0744247
      ],
      [
       120.6132759,
       15.0745011
      ],
      [
       120.6131566,
       15.0747588
      ],
      [
       120.6130439,
       15.0749984
      ],
      [
       120.6130251,
       15.0750605
      ],
      [
       120.6130184,
       15.0751266
      ],
      [
       120.6130171,
       15.0751732
      ],
      [
       120.6130278,
       15.0752574
      ],
      [
       120.6130519,
       15.0753571
      ],
      [
       120.6130479,
       15.0754037
      ],
      [
       120.6130144,
       15.0754503
      ],
      [
       120.6129849,
       15.0754762
      ],
      [
       120.6129152,
       15.0755448
      ],
      [
       120.6128535,
       15.0756199
      ],
      [
       120.6127314,
       15.0758025
      ],
      [
       120.612608,
       15.0759851
      ],
      [
       120.612541,
       15.0761133
      ],
      [
       120.6124726,
       15.0762441
      ],
      [
       120.6124096,
       15.0763606
      ],
      [
       120.6123586,
       15.0764358
      ],
      [
       120.6123117,
       15.0764746
      ],
      [
       120.6122446,
       15.0765057
      ],
      [
       120.612136,
       15.0765186
      ],
      [
       120.6120609,
       15.0765173
      ],
      [
       120.6119268,
       15.0764927
      ],
      [
       120.6116921,
       15.0764383
      ],
      [
       120.6116156,
       15.0764358
      ],
      [
       120.6115687,
       15.0764617
      ],
      [
       120.611503,
       15.0765173
      ],
      [
       120.6114091,
       15.0765678
      ],
      [
       120.6113192,
       15.0766106
      ],
      [
       120.6111851,
       15.0766611
      ],
      [
       120.6107855,
       15.0767724
      ],
      [
       120.6106594,
       15.0768191
      ],
      [
       120.6105602,
       15.0768683
      ],
      [
       120.6104851,
       15.0769472
      ],
      [
       120.6104234,
       15.0770444
      ],
      [
       120.6103342,
       15.0772043
      ],
      [
       120.6102447,
       15.0774225
      ],
      [
       120.6100532,
       15.077868
      ],
      [
       120.609946,
       15.078101
      ],
      [
       120.6098628,
       15.07836
      ],
      [
       120.6097394,
       15.078632
      ],
      [
       120.6096348,
       15.0787977
      ],
      [
       120.6094833,
       15.0789816
      ],
      [
       120.6094871,
       15.0790281
      ],
      [
       120.6095141,
       15.0793532
      ],
      [
       120.6096616,
       15.0798893
      ],
      [
       120.6096938,
       15.0800421
      ],
      [
       120.6096402,
       15.0801911
      ],
      [
       120.609486,
       15.0802856
      ],
      [
       120.6089079,
       15.0804552
      ],
      [
       120.6087816,
       15.0805155
      ],
      [
       120.6087041,
       15.0805756
      ],
      [
       120.6086799,
       15.0806987
      ],
      [
       120.6086344,
       15.0807543
      ],
      [
       120.6085888,
       15.0808152
      ],
      [
       120.6085391,
       15.0808463
      ],
      [
       120.6084734,
       15.0808515
      ],
      [
       120.6084345,
       15.0808618
      ],
      [
       120.6083715,
       15.0809136
      ],
      [
       120.6083634,
       15.0809512
      ],
      [
       120.6083715,
       15.0809874
      ],
      [
       120.6083406,
       15.0810159
      ],
      [
       120.6082967,
       15.0810427
      ],
      [
       120.6082615,
       15.0811066
      ],
      [
       120.6082615,
       15.0811674
      ],
      [
       120.6082897,
       15.0812205
      ],
      [
       120.6083259,
       15.0812555
      ],
      [
       120.6083956,
       15.0812801
      ],
      [
       120.6085002,
       15.0812917
      ],
      [
       120.6087604,
       15.0813047
      ],
      [
       120.608983,
       15.0814186
      ],
      [
       120.6090367,
       15.081517
      ],
      [
       120.6090742,
       15.0817139
      ],
      [
       120.6090474,
       15.0818485
      ],
      [
       120.608916,
       15.0820531
      ],
      [
       120.6086813,
       15.0824222
      ],
      [
       120.6086558,
       15.0826424
      ],
      [
       120.6087052,
       15.0828437
      ],
      [
       120.6087994,
       15.0832426
      ],
      [
       120.6087712,
       15.0835125
      ],
      [
       120.6087139,
       15.0838848
      ],
      [
       120.6087282,
       15.0841017
      ],
      [
       120.6087181,
       15.0841513
      ],
      [
       120.6086706,
       15.084384
      ],
      [
       120.6086035,
       15.0845653
      ],
      [
       120.6085096,
       15.0847388
      ],
      [
       120.608401,
       15.084867
      ],
      [
       120.6082709,
       15.0849654
      ],
      [
       120.6082461,
       15.0850236
      ],
      [
       120.608236,
       15.0850806
      ],
      [
       120.6082427,
       15.0851389
      ],
      [
       120.6082668,
       15.0851873
      ],
      [
       120.6083085,
       15.0852502
      ],
      [
       120.6083205,
       15.0853085
      ],
      [
       120.6083111,
       15.0853603
      ],
      [
       120.6082857,
       15.0854134
      ],
      [
       120.6081824,
       15.0855934
      ],
      [
       120.6080939,
       15.0857035
      ],
      [
       120.607941,
       15.0857449
      ],
      [
       120.6076704,
       15.0858156
      ],
      [
       120.6075568,
       15.0858932
      ],
      [
       120.6074852,
       15.0859774
      ],
      [
       120.6074247,
       15.0860945
      ],
      [
       120.607325,
       15.086229
      ],
      [
       120.6072155,
       15.0863146
      ],
      [
       120.6071042,
       15.0864972
      ],
      [
       120.6070679,
       15.0867212
      ],
      [
       120.6070974,
       15.086843
      ],
      [
       120.6070333,
       15.0870191
      ],
      [
       120.6068386,
       15.0874772
      ],
      [
       120.6066897,
       15.0876911
      ],
      [
       120.6064773,
       15.0878708
      ],
      [
       120.6073156,
       15.0919098
      ],
      [
       120.6080291,
       15.0944063
      ],
      [
       120.6077287,
       15.0946653
      ],
      [
       120.6075034,
       15.0952298
      ],
      [
       120.607498,
       15.0954473
      ],
      [
       120.6076821,
       15.09608
      ],
      [
       120.6083252,
       15.0984142
      ],
      [
       120.6091149,
       15.1012612
      ],
      [
       120.6091076,
       15.101272
      ],
      [
       120.6076793,
       15.1034086
      ],
      [
       120.6076755,
       15.1034531
      ],
      [
       120.607658,
       15.1035105
      ],
      [
       120.6075502,
       15.1038185
      ],
      [
       120.6073885,
       15.1042713
      ],
      [
       120.6071705,
       15.1048891
      ],
      [
       120.6068788,
       15.1057953
      ],
      [
       120.6067561,
       15.106175
      ],
      [
       120.6066401,
       15.1065236
      ],
      [
       120.606502,
       15.1069036
      ],
      [
       120.6062666,
       15.1075892
      ],
      [
       120.6062043,
       15.1077776
      ],
      [
       120.6057615,
       15.1092297
      ],
      [
       120.60539,
       15.1104612
      ],
      [
       120.6051752,
       15.1111513
      ],
      [
       120.6049785,
       15.1118197
      ],
      [
       120.6047844,
       15.1124576
      ],
      [
       120.6038352,
       15.1153922
      ],
      [
       120.603698,
       15.1158203
      ],
      [
       120.6035688,
       15.1161842
      ],
      [
       120.6035159,
       15.1163085
      ],
      [
       120.6034554,
       15.1164395
      ],
      [
       120.6034102,
       15.1165202
      ],
      [
       120.6033639,
       15.1166027
      ],
      [
       120.6033075,
       15.1166995
      ],
      [
       120.6032085,
       15.1168206
      ],
      [
       120.6031573,
       15.1168833
      ],
      [
       120.603094,
       15.1169527
      ],
      [
       120.602984,
       15.1170732
      ],
      [
       120.6029295,
       15.1171329
      ],
      [
       120.6028691,
       15.1171879
      ],
      [
       120.6028242,
       15.1172212
      ],
      [
       120.6029958,
       15.1172817
      ],
      [
       120.6031602,
       15.1173481
      ],
      [
       120.6032976,
       15.1174212
      ],
      [
       120.6033535,
       15.1174542
      ],
      [
       120.6034188,
       15.1175048
      ],
      [
       120.6034922,
       15.1175936
      ],
      [
       120.6035307,
       15.1176379
      ],
      [
       120.6031391,
       15.1179124
      ],
      [
       120.6027214,
       15.1182989
      ],
      [
       120.6023281,
       15.1185951
      ],
      [
       120.6020808,
       15.1188025
      ],
      [
       120.6020072,
       15.118911
      ],
      [
       120.6019066,
       15.1190376
      ],
      [
       120.601609,
       15.1193337
      ],
      [
       120.6015462,
       15.1194134
      ],
      [
       120.6013997,
       15.1196432
      ],
      [
       120.6013714,
       15.1198152
      ],
      [
       120.6012362,
       15.1199944
      ],
      [
       120.6011373,
       15.1200425
      ],
      [
       120.595119,
       15.1169809
      ],
      [
       120.5943965,
       15.1166134
      ],
      [
       120.5942962,
       15.1167816
      ],
      [
       120.5954145,
       15.1172987
      ],
      [
       120.5950587,
       15.1177563
      ],
      [
       120.5966853,
       15.118499
      ],
      [
       120.5963016,
       15.1192544
      ],
      [
       120.5974729,
       15.1198141
      ],
      [
       120.5972287,
       15.120002
      ],
      [
       120.5970686,
       15.1201653
      ],
      [
       120.5978971,
       15.1210117
      ],
      [
       120.5984618,
       15.1212316
      ],
      [
       120.5989382,
       15.1212935
      ],
      [
       120.5987995,
       15.1214744
      ],
      [
       120.5986476,
       15.1218109
      ],
      [
       120.5987166,
       15.1220248
      ],
      [
       120.5993124,
       15.1224336
      ],
      [
       120.5996311,
       15.1226566
      ],
      [
       120.5996857,
       15.1226948
      ],
      [
       120.5997285,
       15.1227248
      ],
      [
       120.5999654,
       15.1228712
      ],
      [
       120.5998602,
       15.1233075
      ],
      [
       120.601241,
       15.1249654
      ],
      [
       120.6043696,
       15.1287217
      ],
      [
       120.6071377,
       15.127743
      ],
      [
       120.6123519,
       15.1251744
      ],
      [
       120.6138807,
       15.1239419
      ],
      [
       120.6152219,
       15.125423
      ],
      [
       120.6141651,
       15.1265882
      ],
      [
       120.6153989,
       15.1282039
      ],
      [
       120.6149483,
       15.1285249
      ],
      [
       120.6163698,
       15.1299853
      ],
      [
       120.6188428,
       15.1319634
      ],
      [
       120.6204522,
       15.1342393
      ],
      [
       120.6225684,
       15.1326625
      ],
      [
       120.628008,
       15.1292452
      ],
      [
       120.6271638,
       15.1251364
      ],
      [
       120.6360902,
       15.1222986
      ],
      [
       120.6404536,
       15.1227689
      ],
      [
       120.6492428,
       15.1145827
      ],
      [
       120.649597,
       15.1122153
      ],
      [
       120.6500766,
       15.1118808
      ],
      [
       120.6504752,
       15.1116421
      ],
      [
       120.6505759,
       15.1113325
      ],
      [
       120.6503426,
       15.1107389
      ],
      [
       120.6522202,
       15.1100689
      ],
      [
       120.6526928,
       15.1098962
      ],
      [
       120.6530548,
       15.1096948
      ],
      [
       120.6533748,
       15.1095619
      ],
      [
       120.654152,
       15.1084825
      ],
      [
       120.6545275,
       15.1083064
      ],
      [
       120.6584221,
       15.1078921
      ],
      [
       120.6602889,
       15.1080475
      ],
      [
       120.6616922,
       15.1076176
      ],
      [
       120.6643315,
       15.1033397
      ],
      [
       120.6672283,
       15.0982434
      ],
      [
       120.6690951,
       15.0946282
      ],
      [
       120.6699212,
       15.092919
      ],
      [
       120.6711229,
       15.090319
      ],
      [
       120.6733609,
       15.0851423
      ],
      [
       120.6752684,
       15.0803654
      ],
      [
       120.676135,
       15.0783411
      ],
      [
       120.6766587,
       15.0771916
      ],
      [
       120.6773141,
       15.0757956
      ],
      [
       120.6780704,
       15.0741916
      ],
      [
       120.6789641,
       15.0722811
      ],
      [
       120.6797865,
       15.0707105
      ],
      [
       120.6799657,
       15.0707851
      ],
      [
       120.6800592,
       15.0708241
      ],
      [
       120.6804007,
       15.0701959
      ],
      [
       120.6809379,
       15.0692055
      ],
      [
       120.6816994,
       15.0678541
      ],
      [
       120.6822571,
       15.0668524
      ],
      [
       120.6833036,
       15.0651277
      ],
      [
       120.6843171,
       15.0635233
      ],
      [
       120.685429,
       15.0618026
      ],
      [
       120.6856209,
       15.0615111
      ],
      [
       120.6856939,
       15.0615585
      ],
      [
       120.6874333,
       15.0626888
      ],
      [
       120.6934892,
       15.0556009
      ],
      [
       120.6950166,
       15.0563188
      ],
      [
       120.7000137,
       15.0513379
      ],
      [
       120.7000926,
       15.0512593
      ],
      [
       120.7001387,
       15.0512134
      ],
      [
       120.7002739,
       15.0510786
      ],
      [
       120.7006626,
       15.0505548
      ],
      [
       120.7013292,
       15.0498194
      ],
      [
       120.7023028,
       15.0488604
      ],
      [
       120.7127182,
       15.0420601
      ],
      [
       120.7223552,
       15.0392537
      ],
      [
       120.7224747,
       15.0390882
      ],
      [
       120.7229188,
       15.0386322
      ],
      [
       120.7232569,
       15.0382457
      ],
      [
       120.7240222,
       15.0375052
      ],
      [
       120.7244309,
       15.0370057
      ],
      [
       120.7255909,
       15.0361952
      ],
      [
       120.7270646,
       15.0350772
      ],
      [
       120.727419,
       15.0347966
      ],
      [
       120.7277057,
       15.0345273
      ],
      [
       120.7278114,
       15.0340933
      ],
      [
       120.7275961,
       15.0333233
      ],
      [
       120.7275736,
       15.0326475
      ],
      [
       120.7275609,
       15.0322674
      ],
      [
       120.7274428,
       15.0314939
      ],
      [
       120.7270794,
       15.0310835
      ],
      [
       120.7266007,
       15.0310628
      ],
      [
       120.7261071,
       15.0309592
      ],
      [
       120.7258067,
       15.0307312
      ],
      [
       120.7253706,
       15.030398
      ],
      [
       120.7250048,
       15.0300551
      ],
      [
       120.7247774,
       15.029577
      ],
      [
       120.7246749,
       15.0290267
      ],
      [
       120.7245193,
       15.0281822
      ],
      [
       120.7246472,
       15.0267267
      ],
      [
       120.7247693,
       15.0260902
      ],
      [
       120.7247768,
       15.025571
      ],
      [
       120.724648,
       15.0251773
      ],
      [
       120.724412,
       15.0248042
      ],
      [
       120.7231215,
       15.0232381
      ],
      [
       120.722337,
       15.0226843
      ],
      [
       120.7215627,
       15.0224428
      ],
      [
       120.7210841,
       15.0223394
      ],
      [
       120.7205538,
       15.022392
      ],
      [
       120.7203931,
       15.022409
      ],
      [
       120.7202157,
       15.0223514
      ],
      [
       120.7197368,
       15.0217305
      ],
      [
       120.719659,
       15.0214429
      ],
      [
       120.7196912,
       15.0210414
      ],
      [
       120.7195544,
       15.0208315
      ],
      [
       120.7191091,
       15.020658
      ],
      [
       120.7186076,
       15.0206321
      ],
      [
       120.7183179,
       15.0205647
      ],
      [
       120.7176919,
       15.020219
      ],
      [
       120.7172821,
       15.0199171
      ],
      [
       120.7171846,
       15.0198333
      ],
      [
       120.7170927,
       15.019595
      ],
      [
       120.7169703,
       15.0191231
      ],
      [
       120.7169045,
       15.018531
      ],
      [
       120.716884,
       15.018226
      ],
      [
       120.7169556,
       15.0178252
      ],
      [
       120.7173225,
       15.0171221
      ],
      [
       120.7171473,
       15.0169998
      ],
      [
       120.7168443,
       15.0168705
      ],
      [
       120.7161386,
       15.0168579
      ],
      [
       120.7155922,
       15.0168481
      ],
      [
       120.7150406,
       15.016749
      ],
      [
       120.714556,
       15.0167976
      ],
      [
       120.7138899,
       15.0171445
      ],
      [
       120.7133051,
       15.0178713
      ],
      [
       120.7131557,
       15.0182437
      ],
      [
       120.7128406,
       15.0184005
      ],
      [
       120.7122079,
       15.0181657
      ],
      [
       120.7115978,
       15.0182223
      ],
      [
       120.7110485,
       15.0187366
      ],
      [
       120.7103383,
       15.0190862
      ],
      [
       120.7099923,
       15.0192537
      ],
      [
       120.7096032,
       15.0193652
      ],
      [
       120.7087326,
       15.0194223
      ],
      [
       120.707616,
       15.0193408
      ],
      [
       120.7067734,
       15.0191007
      ],
      [
       120.7065361,
       15.0188243
      ],
      [
       120.7060492,
       15.0184688
      ],
      [
       120.7056141,
       15.0182872
      ],
      [
       120.7050455,
       15.0181421
      ],
      [
       120.7046646,
       15.018396
      ],
      [
       120.703581,
       15.0175463
      ],
      [
       120.7045251,
       15.0164686
      ],
      [
       120.70445,
       15.0164116
      ],
      [
       120.7046485,
       15.0161836
      ],
      [
       120.7039754,
       15.0155919
      ],
      [
       120.7041389,
       15.0154134
      ],
      [
       120.7054518,
       15.0139644
      ],
      [
       120.7036025,
       15.0135049
      ],
      [
       120.7030922,
       15.0149344
      ],
      [
       120.7023432,
       15.0148275
      ],
      [
       120.7019986,
       15.0147783
      ],
      [
       120.7019715,
       15.0146608
      ],
      [
       120.7019715,
       15.0141908
      ],
      [
       120.7018904,
       15.0137077
      ],
      [
       120.7017282,
       15.0132769
      ],
      [
       120.7017282,
       15.0127285
      ],
      [
       120.7020391,
       15.0117363
      ],
      [
       120.6993785,
       15.012597
      ],
      [
       120.6968525,
       15.0055219
      ],
      [
       120.6967398,
       15.0051489
      ],
      [
       120.696316,
       15.0052681
      ],
      [
       120.6959191,
       15.0053095
      ],
      [
       120.6955543,
       15.0053199
      ],
      [
       120.6952217,
       15.0052991
      ],
      [
       120.6949524,
       15.0057015
      ],
      [
       120.6943263,
       15.0063297
      ],
      [
       120.6940173,
       15.0066125
      ],
      [
       120.6931229,
       15.0074764
      ],
      [
       120.6904238,
       15.0049398
      ],
      [
       120.6880829,
       15.0054243
      ],
      [
       120.6868289,
       15.0055051
      ],
      [
       120.6869125,
       15.0040515
      ],
      [
       120.6843208,
       15.0045361
      ],
      [
       120.6821471,
       15.0051013
      ],
      [
       120.6808095,
       15.0072009
      ],
      [
       120.6816455,
       15.0095426
      ],
      [
       120.683234,
       15.0102694
      ],
      [
       120.6828159,
       15.0134993
      ],
      [
       120.6816455,
       15.0135801
      ],
      [
       120.6798899,
       15.0142261
      ],
      [
       120.6795346,
       15.0143471
      ],
      [
       120.6790539,
       15.0141857
      ],
      [
       120.6774367,
       15.0167128
      ]
     ]
    ]
   }
  },
  {
   "type": "Feature",
   "properties": {
    "name": "Cordova",
    "osm_id": 10337872,
    "admin_level": "6",
    "region": "cebu",
    "franchise": "VECO"
   },
   "geometry": {
    "type": "Polygon",
    "coordinates": [
     [
      [
       123.8896035,
       10.2463015
      ],
      [
       123.8928222,
       10.2536074
      ],
      [
       123.8958263,
       10.2555077
      ],
      [
       123.9157819,
       10.2681764
      ],
      [
       123.9193868,
       10.2641225
      ],
      [
       123.9226913,
       10.2613776
      ],
      [
       123.925867,
       10.2584638
      ],
      [
       123.9298796,
       10.2597306
      ],
      [
       123.9338493,
       10.2613564
      ],
      [
       123.9378619,
       10.2637424
      ],
      [
       123.9387094,
       10.2650093
      ],
      [
       123.9398146,
       10.26654
      ],
      [
       123.9409625,
       10.2672895
      ],
      [
       123.941635,
       10.2684971
      ],
      [
       123.9421207,
       10.2692787
      ],
      [
       123.943802,
       10.2705486
      ],
      [
       123.9441309,
       10.2711444
      ],
      [
       123.9444533,
       10.2716662
      ],
      [
       123.9452112,
       10.2725364
      ],
      [
       123.9457476,
       10.2729692
      ],
      [
       123.9463162,
       10.2732225
      ],
      [
       123.946917,
       10.2733598
      ],
      [
       123.9473033,
       10.2734126
      ],
      [
       123.9477432,
       10.2737187
      ],
      [
       123.9479041,
       10.2739404
      ],
      [
       123.9479899,
       10.2743521
      ],
      [
       123.9481509,
       10.2745844
      ],
      [
       123.94858,
       10.2748589
      ],
      [
       123.9492881,
       10.2751439
      ],
      [
       123.9495778,
       10.275355
      ],
      [
       123.9498675,
       10.2757562
      ],
      [
       123.9498675,
       10.2759884
      ],
      [
       123.9498353,
       10.276284
      ],
      [
       123.9502215,
       10.2766957
      ],
      [
       123.9508545,
       10.2781631
      ],
      [
       123.9518845,
       10.2791343
      ],
      [
       123.9523351,
       10.2792504
      ],
      [
       123.9524746,
       10.2794193
      ],
      [
       123.9526999,
       10.2794616
      ],
      [
       123.9532685,
       10.2794299
      ],
      [
       123.953923,
       10.2796516
      ],
      [
       123.9546847,
       10.2799577
      ],
      [
       123.9551568,
       10.2796094
      ],
      [
       123.9550066,
       10.2790288
      ],
      [
       123.9549744,
       10.2783954
      ],
      [
       123.9552963,
       10.2777514
      ],
      [
       123.955704,
       10.2773397
      ],
      [
       123.9559936,
       10.2766746
      ],
      [
       123.9563477,
       10.2757139
      ],
      [
       123.9567768,
       10.27507
      ],
      [
       123.9567768,
       10.2748694
      ],
      [
       123.9567232,
       10.2744471
      ],
      [
       123.9568637,
       10.2741495
      ],
      [
       123.9570987,
       10.2738454
      ],
      [
       123.9572167,
       10.2738032
      ],
      [
       123.9577693,
       10.2732384
      ],
      [
       123.9579409,
       10.2729639
      ],
      [
       123.9581716,
       10.2727686
      ],
      [
       123.9587724,
       10.2720243
      ],
      [
       123.9593196,
       10.2712484
      ],
      [
       123.9598614,
       10.270805
      ],
      [
       123.9606178,
       10.2703669
      ],
      [
       123.9627099,
       10.2693587
      ],
      [
       123.9640188,
       10.2680549
      ],
      [
       123.9655262,
       10.2672315
      ],
      [
       123.9664113,
       10.2666297
      ],
      [
       123.9677364,
       10.2657165
      ],
      [
       123.9689326,
       10.2646397
      ],
      [
       123.9692974,
       10.2640907
      ],
      [
       123.9697266,
       10.2628767
      ],
      [
       123.9696514,
       10.2617471
      ],
      [
       123.9693403,
       10.2603218
      ],
      [
       123.969233,
       10.259435
      ],
      [
       123.9685357,
       10.2583793
      ],
      [
       123.9677632,
       10.2569963
      ],
      [
       123.9666688,
       10.2558244
      ],
      [
       123.9666366,
       10.2518865
      ],
      [
       123.9686965,
       10.2399246
      ],
      [
       123.9715289,
       10.2270859
      ],
      [
       123.9868926,
       10.2329141
      ],
      [
       124.0056037,
       10.2160205
      ],
      [
       124.0047454,
       10.208756
      ],
      [
       124.0047454,
       10.2062218
      ],
      [
       124.0050029,
       10.2009
      ],
      [
       124.0116119,
       10.1940576
      ],
      [
       124.0163325,
       10.1867926
      ],
      [
       124.0199951,
       10.1789047
      ],
      [
       124.0096209,
       10.1656977
      ],
      [
       123.9959253,
       10.1561236
      ],
      [
       123.9837862,
       10.151678
      ],
      [
       123.950691,
       10.1522489
      ],
      [
       123.9359816,
       10.1532873
      ],
      [
       123.9134356,
       10.1500236
      ],
      [
       123.9022943,
       10.1491519
      ],
      [
       123.8896035,
       10.2463015
      ]
     ]
    ]
   }
  }
 ]
}