{
 "type": "FeatureCollection",
 "properties": {
  "region": "iloilo",
  "franchise": "MORE",
  "source": "OpenStreetMap via Overpass API",
  "license": "ODbL"
 },
 "features": [
  {
   "type": "Feature",
   "properties": {
    "name": "Iloilo City",
    "osm_id": 3499101,
    "admin_level": "6",
    "region": "iloilo",
    "franchise": "MORE"
   },
   "geometry": {
    "type": "Polygon",
    "coordinates": [
     [
      [
       122.5953357,
       10.7600265
      ],
      [
       122.606954,
       10.7519658
      ],
      [
       122.6171611,
       10.7507653
      ],
      [
       122.6158305,
       10.7436654
      ],
      [
       122.6143544,
       10.7360172
      ],
      [
       122.6106132,
       10.7286329
      ],
      [
       122.6075506,
       10.7221346
      ],
      [
       122.6053047,
       10.7154459
      ],
      [
       122.603403,
       10.7088072
      ],
      [
       122.6023653,
       10.7025689
      ],
      [
       122.6013708,
       10.6954001
      ],
      [
       122.5981062,
       10.6876858
      ],
      [
       122.5932598,
       10.6851948
      ],
      [
       122.5864362,
       10.679333
      ],
      [
       122.5777385,
       10.6752676
      ],
      [
       122.57236,
       10.6774774
      ],
      [
       122.5676746,
       10.6788839
      ],
      [
       122.5619598,
       10.6777816
      ],
      [
       122.5550651,
       10.6753688
      ],
      [
       122.5486319,
       10.6724861
      ],
      [
       122.5369621,
       10.6594624
      ],
      [
       122.5173467,
       10.6491185
      ],
      [
       122.487965,
       10.639315
      ],
      [
       122.4946233,
       10.6815544
      ],
      [
       122.4952285,
       10.6826942
      ],
      [
       122.4969201,
       10.6858946
      ],
      [
       122.49834,
       10.6919447
      ],
      [
       122.4986728,
       10.694671
      ],
      [
       122.4986771,
       10.6947228
      ],
      [
       122.4986818,
       10.6947964
      ],
      [
       122.498825,
       10.6948144
      ],
      [
       122.49909,
       10.6947821
      ],
      [
       122.5002433,
       10.6945763
      ],
      [
       122.5012527,
       10.6940382
      ],
      [
       122.5027896,
       10.6934679
      ],
      [
       122.5032615,
       10.6933687
      ],
      [
       122.5037813,
       10.693334
      ],
      [
       122.5042053,
       10.6933488
      ],
      [
       122.5050126,
       10.6935205
      ],
      [
       122.5054377,
       10.6937854
      ],
      [
       122.505621,
       10.694001
      ],
      [
       122.5059036,
       10.6941796
      ],
      [
       122.5066052,
       10.6944171
      ],
      [
       122.5068976,
       10.6944069
      ],
      [
       122.5070987,
       10.6942928
      ],
      [
       122.5072522,
       10.6941318
      ],
      [
       122.5074264,
       10.6936856
      ],
      [
       122.5075628,
       10.6935662
      ],
      [
       122.5077913,
       10.6933662
      ],
      [
       122.5081294,
       10.6928975
      ],
      [
       122.5083994,
       10.6924611
      ],
      [
       122.5091666,
       10.6916924
      ],
      [
       122.5094139,
       10.6915114
      ],
      [
       122.5100928,
       10.6912535
      ],
      [
       122.5106782,
       10.6911543
      ],
      [
       122.511918,
       10.6911018
      ],
      [
       122.512171,
       10.6911222
      ],
      [
       122.5124489,
       10.6912281
      ],
      [
       122.5125899,
       10.6913832
      ],
      [
       122.5126514,
       10.6915618
      ],
      [
       122.512722,
       10.6916461
      ],
      [
       122.5124908,
       10.6917552
      ],
      [
       122.5122758,
       10.6919881
      ],
      [
       122.5120167,
       10.6923186
      ],
      [
       122.5117245,
       10.6927087
      ],
      [
       122.5115481,
       10.6930663
      ],
      [
       122.5113383,
       10.6935813
      ],
      [
       122.5110904,
       10.6941227
      ],
      [
       122.5109691,
       10.6943259
      ],
      [
       122.5109443,
       10.6945994
      ],
      [
       122.5109857,
       10.6947349
      ],
      [
       122.5110629,
       10.6948297
      ],
      [
       122.5111428,
       10.694892
      ],
      [
       122.5115315,
       10.6950139
      ],
      [
       122.512025,
       10.6950627
      ],
      [
       122.5123282,
       10.6950654
      ],
      [
       122.5127417,
       10.6951358
      ],
      [
       122.5130477,
       10.6952821
      ],
      [
       122.5134612,
       10.6955096
      ],
      [
       122.5135853,
       10.6955746
      ],
      [
       122.5136928,
       10.6957426
      ],
      [
       122.5137396,
       10.6958699
      ],
      [
       122.5137066,
       10.6959918
      ],
      [
       122.5136376,
       10.696073
      ],
      [
       122.5134585,
       10.6961706
      ],
      [
       122.5132379,
       10.6962356
      ],
      [
       122.5129154,
       10.6962572
      ],
      [
       122.5119891,
       10.6962708
      ],
      [
       122.5117052,
       10.6963764
      ],
      [
       122.5114626,
       10.6965877
      ],
      [
       122.51122,
       10.6970347
      ],
      [
       122.5109526,
       10.6975195
      ],
      [
       122.5109085,
       10.6976956
      ],
      [
       122.5109113,
       10.6978879
      ],
      [
       122.5109554,
       10.6980261
      ],
      [
       122.5110518,
       10.6980884
      ],
      [
       122.5113,
       10.6981669
      ],
      [
       122.5115674,
       10.6982211
      ],
      [
       122.5120084,
       10.6981507
      ],
      [
       122.5125251,
       10.6979487
      ],
      [
       122.5134596,
       10.6977238
      ],
      [
       122.5142315,
       10.6975396
      ],
      [
       122.5146229,
       10.6975153
      ],
      [
       122.5148324,
       10.697545
      ],
      [
       122.5149648,
       10.6976317
      ],
      [
       122.5149951,
       10.697732
      ],
      [
       122.5149648,
       10.697862
      ],
      [
       122.5148903,
       10.6979541
      ],
      [
       122.5146753,
       10.6980706
      ],
      [
       122.51435,
       10.6982033
      ],
      [
       122.5139641,
       10.6982737
      ],
      [
       122.513738,
       10.6983794
      ],
      [
       122.5136305,
       10.6984904
      ],
      [
       122.513523,
       10.6987396
      ],
      [
       122.5133245,
       10.6991812
      ],
      [
       122.513126,
       10.6997392
      ],
      [
       122.5131398,
       10.6999017
      ],
      [
       122.5132308,
       10.70001
      ],
      [
       122.5133852,
       10.7000263
      ],
      [
       122.513523,
       10.7000182
      ],
      [
       122.5142094,
       10.6997852
      ],
      [
       122.5146753,
       10.6994629
      ],
      [
       122.5148986,
       10.6992408
      ],
      [
       122.5151688,
       10.6990809
      ],
      [
       122.5153893,
       10.6990511
      ],
      [
       122.5155492,
       10.6990918
      ],
      [
       122.5156925,
       10.6991784
      ],
      [
       122.5158607,
       10.6993085
      ],
      [
       122.5159792,
       10.6994845
      ],
      [
       122.516073,
       10.6997202
      ],
      [
       122.5161171,
       10.6998584
      ],
      [
       122.5160922,
       10.700048
      ],
      [
       122.5159544,
       10.7001672
      ],
      [
       122.5156374,
       10.7003188
      ],
      [
       122.5151439,
       10.7004516
      ],
      [
       122.5147194,
       10.7006141
      ],
      [
       122.5145733,
       10.700801
      ],
      [
       122.5145182,
       10.7009554
      ],
      [
       122.5145099,
       10.7012154
      ],
      [
       122.5145513,
       10.7015811
      ],
      [
       122.5144934,
       10.702261
      ],
      [
       122.514441,
       10.7026673
      ],
      [
       122.5143666,
       10.7029816
      ],
      [
       122.5142756,
       10.7032335
      ],
      [
       122.5142976,
       10.7033283
      ],
      [
       122.5143748,
       10.7034448
      ],
      [
       122.514656,
       10.7036046
      ],
      [
       122.5149041,
       10.7038267
      ],
      [
       122.5152018,
       10.7040055
      ],
      [
       122.5154355,
       10.7041723
      ],
      [
       122.5155706,
       10.7043104
      ],
      [
       122.5158021,
       10.704603
      ],
      [
       122.516053,
       10.7048468
      ],
      [
       122.5161412,
       10.7048603
      ],
      [
       122.5162956,
       10.7047438
      ],
      [
       122.5166347,
       10.7045515
      ],
      [
       122.5168828,
       10.7045
      ],
      [
       122.5170013,
       10.704519
      ],
      [
       122.5170509,
       10.7045921
      ],
      [
       122.5170675,
       10.7046734
      ],
      [
       122.5170564,
       10.7047574
      ],
      [
       122.516993,
       10.7048115
      ],
      [
       122.5169021,
       10.7048874
      ],
      [
       122.5166264,
       10.7050093
      ],
      [
       122.51645,
       10.7051556
      ],
      [
       122.5164141,
       10.7053289
      ],
      [
       122.5164389,
       10.705505
      ],
      [
       122.5165575,
       10.7057786
      ],
      [
       122.5166567,
       10.7059411
      ],
      [
       122.5168359,
       10.7060576
      ],
      [
       122.5169985,
       10.7060576
      ],
      [
       122.5170923,
       10.7059763
      ],
      [
       122.5170978,
       10.7057921
      ],
      [
       122.517067,
       10.705585
      ],
      [
       122.5171235,
       10.705493
      ],
      [
       122.5172658,
       10.7054701
      ],
      [
       122.5173516,
       10.7055371
      ],
      [
       122.5174023,
       10.7056156
      ],
      [
       122.5174315,
       10.7057593
      ],
      [
       122.517449,
       10.7058627
      ],
      [
       122.5175368,
       10.7059795
      ],
      [
       122.5176736,
       10.7060218
      ],
      [
       122.5177882,
       10.7059508
      ],
      [
       122.5178486,
       10.7058282
      ],
      [
       122.5178974,
       10.7056559
      ],
      [
       122.5179227,
       10.7054222
      ],
      [
       122.5180077,
       10.7050963
      ],
      [
       122.5181961,
       10.7049636
      ],
      [
       122.5184268,
       10.7049016
      ],
      [
       122.5186028,
       10.705007
      ],
      [
       122.5185397,
       10.705469
      ],
      [
       122.5184269,
       10.705677
      ],
      [
       122.5185526,
       10.7060176
      ],
      [
       122.5188013,
       10.7063352
      ],
      [
       122.5189685,
       10.7065504
      ],
      [
       122.5191992,
       10.706751
      ],
      [
       122.5191931,
       10.7069166
      ],
      [
       122.5189775,
       10.7069906
      ],
      [
       122.5188425,
       10.7070317
      ],
      [
       122.5187039,
       10.707111
      ],
      [
       122.5186105,
       10.7073387
      ],
      [
       122.5186305,
       10.7074725
      ],
      [
       122.5187823,
       10.707524
      ],
      [
       122.5190194,
       10.7075259
      ],
      [
       122.5191501,
       10.7075435
      ],
      [
       122.5192478,
       10.7076759
      ],
      [
       122.5192369,
       10.7079278
      ],
      [
       122.5192353,
       10.7080643
      ],
      [
       122.5193143,
       10.7082238
      ],
      [
       122.5194469,
       10.7082897
      ],
      [
       122.5196369,
       10.7083556
      ],
      [
       122.5199346,
       10.70859
      ],
      [
       122.5200838,
       10.7087491
      ],
      [
       122.5203167,
       10.7090119
      ],
      [
       122.5204061,
       10.7090737
      ],
      [
       122.5206696,
       10.7092559
      ],
      [
       122.5211679,
       10.7094439
      ],
      [
       122.5214973,
       10.7097143
      ],
      [
       122.5216154,
       10.7099002
      ],
      [
       122.5219194,
       10.7099925
      ],
      [
       122.5221446,
       10.7100523
      ],
      [
       122.5223377,
       10.7101121
      ],
      [
       122.5225189,
       10.7100632
      ],
      [
       122.5226739,
       10.7100382
      ],
      [
       122.5228939,
       10.710163
      ],
      [
       122.5229114,
       10.7103106
      ],
      [
       122.5228433,
       10.7104226
      ],
      [
       122.5225657,
       10.7105187
      ],
      [
       122.5224403,
       10.710576
      ],
      [
       122.5221231,
       10.7105846
      ],
      [
       122.5219899,
       10.7106508
      ],
      [
       122.5220105,
       10.7108196
      ],
      [
       122.5222337,
       10.7109577
      ],
      [
       122.5224354,
       10.7110062
      ],
      [
       122.5226057,
       10.7109939
      ],
      [
       122.5227196,
       10.7108523
      ],
      [
       122.5229244,
       10.7108187
      ],
      [
       122.5231159,
       10.7108247
      ],
      [
       122.5232333,
       10.7109473
      ],
      [
       122.5232052,
       10.7111213
      ],
      [
       122.5230706,
       10.7113172
      ],
      [
       122.5227211,
       10.7114202
      ],
      [
       122.5224646,
       10.7114138
      ],
      [
       122.5223395,
       10.7115128
      ],
      [
       122.5223667,
       10.7117018
      ],
      [
       122.5225278,
       10.71182
      ],
      [
       122.5227212,
       10.7118538
      ],
      [
       122.5228862,
       10.7118699
      ],
      [
       122.5230873,
       10.7120081
      ],
      [
       122.5234974,
       10.7120515
      ],
      [
       122.5236907,
       10.7122283
      ],
      [
       122.5236736,
       10.7124931
      ],
      [
       122.5234826,
       10.7128525
      ],
      [
       122.5234999,
       10.7129558
      ],
      [
       122.5236569,
       10.713073
      ],
      [
       122.5239932,
       10.7130971
      ],
      [
       122.5240748,
       10.7131049
      ],
      [
       122.5241281,
       10.7131963
      ],
      [
       122.5240959,
       10.7134689
      ],
      [
       122.5240498,
       10.7136332
      ],
      [
       122.524055,
       10.713815
      ],
      [
       122.5240916,
       10.7139263
      ],
      [
       122.5241565,
       10.7140812
      ],
      [
       122.5241447,
       10.7141434
      ],
      [
       122.5240444,
       10.7142473
      ],
      [
       122.5238415,
       10.7143735
      ],
      [
       122.5237035,
       10.7143903
      ],
      [
       122.5235654,
       10.7143758
      ],
      [
       122.5234866,
       10.7143821
      ],
      [
       122.5234167,
       10.7144111
      ],
      [
       122.5233263,
       10.7145178
      ],
      [
       122.523258,
       10.7146623
      ],
      [
       122.523202,
       10.7148277
      ],
      [
       122.5230474,
       10.7149564
      ],
      [
       122.5229317,
       10.7151303
      ],
      [
       122.5227244,
       10.7156597
      ],
      [
       122.5226686,
       10.716258
      ],
      [
       122.5224134,
       10.7164555
      ],
      [
       122.5218272,
       10.7167844
      ],
      [
       122.5213276,
       10.717342
      ],
      [
       122.52106,
       10.7178117
      ],
      [
       122.5209393,
       10.7182469
      ],
      [
       122.5209697,
       10.718683
      ],
      [
       122.5210677,
       10.7191507
      ],
      [
       122.5210846,
       10.7196826
      ],
      [
       122.5210223,
       10.7199827
      ],
      [
       122.5209351,
       10.7201539
      ],
      [
       122.5207118,
       10.7202416
      ],
      [
       122.5206561,
       10.7204449
      ],
      [
       122.5207053,
       10.7206154
      ],
      [
       122.5207804,
       10.7207152
      ],
      [
       122.5209906,
       10.7207948
      ],
      [
       122.5211375,
       10.7208709
      ],
      [
       122.5212507,
       10.7209934
      ],
      [
       122.5212796,
       10.7211493
      ],
      [
       122.521233,
       10.721329
      ],
      [
       122.5211012,
       10.7214855
      ],
      [
       122.5207121,
       10.7215933
      ],
      [
       122.5200273,
       10.7221488
      ],
      [
       122.5198305,
       10.7223803
      ],
      [
       122.5197576,
       10.7228206
      ],
      [
       122.5197159,
       10.7229835
      ],
      [
       122.5195766,
       10.7231543
      ],
      [
       122.5193855,
       10.7231922
      ],
      [
       122.5191158,
       10.7229134
      ],
      [
       122.518935,
       10.7228625
      ],
      [
       122.5185728,
       10.7229744
      ],
      [
       122.5183396,
       10.7231329
      ],
      [
       122.5183568,
       10.7233976
      ],
      [
       122.5183835,
       10.7235583
      ],
      [
       122.5183274,
       10.7237084
      ],
      [
       122.5183821,
       10.7238606
      ],
      [
       122.5186309,
       10.7239342
      ],
      [
       122.5185928,
       10.7241351
      ],
      [
       122.5183594,
       10.7242496
      ],
      [
       122.5181566,
       10.7244606
      ],
      [
       122.5178291,
       10.7246629
      ],
      [
       122.5177968,
       10.7248917
      ],
      [
       122.5177435,
       10.7250831
      ],
      [
       122.5177976,
       10.7252996
      ],
      [
       122.5177699,
       10.725535
      ],
      [
       122.5176892,
       10.7257745
      ],
      [
       122.5178136,
       10.7259126
      ],
      [
       122.5178922,
       10.726302
      ],
      [
       122.5177696,
       10.7265929
      ],
      [
       122.5175378,
       10.726777
      ],
      [
       122.5171549,
       10.7267663
      ],
      [
       122.5170286,
       10.7269425
      ],
      [
       122.5170991,
       10.7273553
      ],
      [
       122.5169894,
       10.7277224
      ],
      [
       122.5168437,
       10.7279951
      ],
      [
       122.5167874,
       10.7283212
      ],
      [
       122.5167307,
       10.7286381
      ],
      [
       122.5167482,
       10.7289347
      ],
      [
       122.5164722,
       10.7290838
      ],
      [
       122.5163977,
       10.729247
      ],
      [
       122.516499,
       10.7294824
      ],
      [
       122.516779,
       10.7297283
      ],
      [
       122.5167433,
       10.7299989
      ],
      [
       122.5164658,
       10.7303348
      ],
      [
       122.5163134,
       10.7305532
      ],
      [
       122.5162148,
       10.7310731
      ],
      [
       122.5161267,
       10.7313301
      ],
      [
       122.515847,
       10.7314971
      ],
      [
       122.515712,
       10.7321055
      ],
      [
       122.515765,
       10.7323489
      ],
      [
       122.5159185,
       10.732477
      ],
      [
       122.5159348,
       10.7325985
      ],
      [
       122.515845,
       10.7326973
      ],
      [
       122.515498,
       10.7330635
      ],
      [
       122.5154335,
       10.733259
      ],
      [
       122.5154973,
       10.7335101
      ],
      [
       122.5156994,
       10.7337822
      ],
      [
       122.5158791,
       10.7340755
      ],
      [
       122.5159673,
       10.7346371
      ],
      [
       122.5160848,
       10.7351418
      ],
      [
       122.515983,
       10.7354279
      ],
      [
       122.515686,
       10.7357572
      ],
      [
       122.5154154,
       10.7359595
      ],
      [
       122.5150896,
       10.7361147
      ],
      [
       122.5149566,
       10.7363031
      ],
      [
       122.5147222,
       10.736557
      ],
      [
       122.5146374,
       10.7367082
      ],
      [
       122.5146361,
       10.7368574
      ],
      [
       122.5147477,
       10.7370106
      ],
      [
       122.5147047,
       10.7371441
      ],
      [
       122.5145333,
       10.7372378
      ],
      [
       122.514358,
       10.7372179
      ],
      [
       122.5142463,
       10.7372927
      ],
      [
       122.5141667,
       10.7374155
      ],
      [
       122.5139997,
       10.7375217
      ],
      [
       122.5138181,
       10.7376285
      ],
      [
       122.5136982,
       10.7377173
      ],
      [
       122.5136266,
       10.7378199
      ],
      [
       122.5137233,
       10.7380575
      ],
      [
       122.5137099,
       10.738213
      ],
      [
       122.5135436,
       10.7384053
      ],
      [
       122.5135275,
       10.7386108
      ],
      [
       122.5134068,
       10.7387927
      ],
      [
       122.5134782,
       10.7388761
      ],
      [
       122.5133684,
       10.7390422
      ],
      [
       122.5134201,
       10.7391814
      ],
      [
       122.5133048,
       10.7393833
      ],
      [
       122.5130801,
       10.7395371
      ],
      [
       122.517267,
       10.7415641
      ],
      [
       122.5180252,
       10.741315
      ],
      [
       122.519262,
       10.7409087
      ],
      [
       122.5235771,
       10.7392478
      ],
      [
       122.5266005,
       10.7383451
      ],
      [
       122.5276835,
       10.7380192
      ],
      [
       122.5287768,
       10.7379191
      ],
      [
       122.5295424,
       10.737873
      ],
      [
       122.531485,
       10.7376833
      ],
      [
       122.532255,
       10.7374944
      ],
      [
       122.5328596,
       10.7373054
      ],
      [
       122.5333815,
       10.7379278
      ],
      [
       122.53233,
       10.7385714
      ],
      [
       122.5373192,
       10.7454198
      ],
      [
       122.5372346,
       10.7455986
      ],
      [
       122.5371239,
       10.7457624
      ],
      [
       122.5371541,
       10.7460228
      ],
      [
       122.5374202,
       10.7462243
      ],
      [
       122.5377324,
       10.7464455
      ],
      [
       122.5378387,
       10.7466098
      ],
      [
       122.5377542,
       10.7468586
      ],
      [
       122.5374272,
       10.7471426
      ],
      [
       122.5375906,
       10.7474621
      ],
      [
       122.5372767,
       10.7476914
      ],
      [
       122.5373059,
       10.7478707
      ],
      [
       122.5371686,
       10.7481067
      ],
      [
       122.5371034,
       10.7483573
      ],
      [
       122.5371119,
       10.7486702
      ],
      [
       122.5399677,
       10.7490554
      ],
      [
       122.5407444,
       10.7504909
      ],
      [
       122.5408438,
       10.7506101
      ],
      [
       122.5409124,
       10.7507155
      ],
      [
       122.5409922,
       10.7508362
      ],
      [
       122.5416592,
       10.7521325
      ],
      [
       122.5423886,
       10.7536643
      ],
      [
       122.5426856,
       10.7544936
      ],
      [
       122.5423134,
       10.7554847
      ],
      [
       122.5413334,
       10.7560816
      ],
      [
       122.5401446,
       10.7565238
      ],
      [
       122.5399655,
       10.7567149
      ],
      [
       122.5398718,
       10.7569027
      ],
      [
       122.5398558,
       10.7570496
      ],
      [
       122.5400415,
       10.7574969
      ],
      [
       122.5401825,
       10.7577199
      ],
      [
       122.5402864,
       10.7578568
      ],
      [
       122.5404556,
       10.7580363
      ],
      [
       122.5407346,
       10.7583293
      ],
      [
       122.541015,
       10.7585726
      ],
      [
       122.5411568,
       10.7587911
      ],
      [
       122.5415129,
       10.7597969
      ],
      [
       122.5415949,
       10.7599562
      ],
      [
       122.5417408,
       10.7600596
      ],
      [
       122.5419653,
       10.7601665
      ],
      [
       122.5422022,
       10.7602317
      ],
      [
       122.5425208,
       10.7602275
      ],
      [
       122.5432262,
       10.7600741
      ],
      [
       122.5438506,
       10.759861
      ],
      [
       122.5441495,
       10.7597194
      ],
      [
       122.5444054,
       10.7595492
      ],
      [
       122.5446921,
       10.7593052
      ],
      [
       122.5453173,
       10.7587038
      ],
      [
       122.5458246,
       10.75815
      ],
      [
       122.5461494,
       10.757897
      ],
      [
       122.5463081,
       10.7577573
      ],
      [
       122.5464889,
       10.7577168
      ],
      [
       122.5466358,
       10.7577202
      ],
      [
       122.546945,
       10.757809
      ],
      [
       122.5473327,
       10.7580217
      ],
      [
       122.5475773,
       10.7581932
      ],
      [
       122.5478648,
       10.7584659
      ],
      [
       122.5484007,
       10.7591358
      ],
      [
       122.5485182,
       10.7593007
      ],
      [
       122.5486545,
       10.7594983
      ],
      [
       122.5490916,
       10.7600085
      ],
      [
       122.550738,
       10.762038
      ],
      [
       122.5510284,
       10.7621546
      ],
      [
       122.5515234,
       10.7622062
      ],
      [
       122.5533946,
       10.7628883
      ],
      [
       122.5600844,
       10.7658753
      ],
      [
       122.5648949,
       10.7734995
      ],
      [
       122.5668699,
       10.7758756
      ],
      [
       122.5712575,
       10.7811925
      ],
      [
       122.5753243,
       10.7786402
      ],
      [
       122.5768016,
       10.7777179
      ],
      [
       122.5776266,
       10.7759746
      ],
      [
       122.579072,
       10.7739089
      ],
      [
       122.5791217,
       10.7735541
      ],
      [
       122.5796195,
       10.7732707
      ],
      [
       122.5799643,
       10.7728345
      ],
      [
       122.5802917,
       10.7727937
      ],
      [
       122.5804826,
       10.7725745
      ],
      [
       122.5804154,
       10.7724154
      ],
      [
       122.5808526,
       10.7720333
      ],
      [
       122.5809939,
       10.7720323
      ],
      [
       122.581282,
       10.7723089
      ],
      [
       122.5815688,
       10.7723601
      ],
      [
       122.5818265,
       10.7723273
      ],
      [
       122.58278,
       10.7718716
      ],
      [
       122.5831089,
       10.7723046
      ],
      [
       122.5834797,
       10.7726414
      ],
      [
       122.5837945,
       10.7728728
      ],
      [
       122.5843912,
       10.7730004
      ],
      [
       122.5847667,
       10.7730451
      ],
      [
       122.5849749,
       10.7730086
      ],
      [
       122.5852519,
       10.7729778
      ],
      [
       122.5854729,
       10.7728839
      ],
      [
       122.5862921,
       10.7725453
      ],
      [
       122.5863799,
       10.7718785
      ],
      [
       122.5871857,
       10.7711503
      ],
      [
       122.5872255,
       10.7704447
      ],
      [
       122.5868171,
       10.7701263
      ],
      [
       122.586565,
       10.7697574
      ],
      [
       122.5876444,
       10.7690146
      ],
      [
       122.5879274,
       10.7683096
      ],
      [
       122.5874602,
       10.7679306
      ],
      [
       122.5870438,
       10.7673747
      ],
      [
       122.588783,
       10.7659307
      ],
      [
       122.5904854,
       10.7641916
      ],
      [
       122.5912601,
       10.7634089
      ],
      [
       122.5941892,
       10.760539
      ],
      [
       122.5953357,
       10.7600265
      ]
     ]
    ]
   }
  },
  {
   "type": "Feature",
   "properties": {
    "name": "Pavia",
    "osm_id": 13728264,
    "admin_level": "6",
    "region": "iloilo",
    "franchise": "MORE"
   },
   "geometry": {
    "type": "Polygon",
    "coordinates": [
     [
      [
       122.5022382,
       10.7542508
      ],
      [
       122.5027761,
       10.7551522
      ],
      [
       122.5027358,
       10.7551865
      ],
      [
       122.503354,
       10.7561354
      ],
      [
       122.5076041,
       10.7629888
      ],
      [
       122.5148997,
       10.7767328
      ],
      [
       122.5185904,
       10.782382
      ],
      [
       122.5229034,
       10.7878456
      ],
      [
       122.5257358,
       10.7918926
      ],
      [
       122.5285682,
       10.7966984
      ],
      [
       122.5324907,
       10.7979799
      ],
      [
       122.5338136,
       10.7982637
      ],
      [
       122.5359496,
       10.7987219
      ],
      [
       122.5405587,
       10.7981486
      ],
      [
       122.54065,
       10.7981372
      ],
      [
       122.5410689,
       10.798085
      ],
      [
       122.5459661,
       10.7974741
      ],
      [
       122.5582908,
       10.7917819
      ],
      [
       122.5601925,
       10.7905657
      ],
      [
       122.5667908,
       10.7844161
      ],
      [
       122.567413,
       10.7845532
      ],
      [
       122.5712575,
       10.7811925
      ],
      [
       122.5668699,
       10.7758756
      ],
      [
       122.5648949,
       10.7734995
      ],
      [
       122.5600844,
       10.7658753
      ],
      [
       122.5533946,
       10.7628883
      ],
      [
       122.5515234,
       10.7622062
      ],
      [
       122.5510284,
       10.7621546
      ],
      [
       122.550738,
       10.762038
      ],
      [
       122.5490916,
       10.7600085
      ],
      [
       122.5486545,
       10.7594983
      ],
      [
       122.5485182,
       10.7593007
      ],
      [
       122.5484007,
       10.7591358
      ],
      [
       122.5478648,
       10.7584659
      ],
      [
       122.5475773,
       10.7581932
      ],
      [
       122.5473327,
       10.7580217
      ],
      [
       122.546945,
       10.757809
      ],
      [
       122.5466358,
       10.7577202
      ],
      [
       122.5464889,
       10.7577168
      ],
      [
       122.5463081,
       10.7577573
      ],
      [
       122.5461494,
       10.757897
      ],
      [
       122.5458246,
       10.75815
      ],
      [
       122.5453173,
       10.7587038
      ],
      [
       122.5446921,
       10.7593052
      ],
      [
       122.5444054,
       10.7595492
      ],
      [
       122.5441495,
       10.7597194
      ],
      [
       122.5438506,
       10.759861
      ],
      [
       122.5432262,
       10.7600741
      ],
      [
       122.5425208,
       10.7602275
      ],
      [
       122.5422022,
       10.7602317
      ],
      [
       122.5419653,
       10.7601665
      ],
      [
       122.5417408,
       10.7600596
      ],
      [
       122.5415949,
       10.7599562
      ],
      [
       122.5415129,
       10.7597969
      ],
      [
       122.5411568,
       10.7587911
      ],
      [
       122.541015,
       10.7585726
      ],
      [
       122.5407346,
       10.7583293
      ],
      [
       122.5404556,
       10.7580363
      ],
      [
       122.5402864,
       10.7578568
      ],
      [
       122.5401825,
       10.7577199
      ],
      [
       122.5400415,
       10.7574969
      ],
      [
       122.5398558,
       10.7570496
      ],
      [
       122.5398718,
       10.7569027
      ],
      [
       122.5399655,
       10.7567149
      ],
      [
       122.5401446,
       10.7565238
      ],
      [
       122.5413334,
       10.7560816
      ],
      [
       122.5423134,
       10.7554847
      ],
      [
       122.5426856,
       10.7544936
      ],
      [
       122.5423886,
       10.7536643
      ],
      [
       122.5416592,
       10.7521325
      ],
      [
       122.5409922,
       10.7508362
      ],
      [
       122.5409124,
       10.7507155
      ],
      [
       122.5408438,
       10.7506101
      ],
      [
       122.5407444,
       10.7504909
      ],
      [
       122.5399677,
       10.7490554
      ],
      [
       122.5371119,
       10.7486702
      ],
      [
       122.5371034,
       10.7483573
      ],
      [
       122.5371686,
       10.7481067
      ],
      [
       122.5373059,
       10.7478707
      ],
      [
       122.5372767,
       10.7476914
      ],
      [
       122.5375906,
       10.7474621
      ],
      [
       122.5374272,
       10.7471426
      ],
      [
       122.5377542,
       10.7468586
      ],
      [
       122.5378387,
       10.7466098
      ],
      [
       122.5377324,
       10.7464455
      ],
      [
       122.5374202,
       10.7462243
      ],
      [
       122.5371541,
       10.7460228
      ],
      [
       122.5371239,
       10.7457624
      ],
      [
       122.5372346,
       10.7455986
      ],
      [
       122.5373192,
       10.7454198
      ],
      [
       122.53233,
       10.7385714
      ],
      [
       122.5333815,
       10.7379278
      ],
      [
       122.5328596,
       10.7373054
      ],
      [
       122.532255,
       10.7374944
      ],
      [
       122.531485,
       10.7376833
      ],
      [
       122.5295424,
       10.737873
      ],
      [
       122.5287768,
       10.7379191
      ],
      [
       122.5276835,
       10.7380192
      ],
      [
       122.5266005,
       10.7383451
      ],
      [
       122.5235771,
       10.7392478
      ],
      [
       122.519262,
       10.7409087
      ],
      [
       122.5180252,
       10.741315
      ],
      [
       122.517267,
       10.7415641
      ],
      [
       122.5130801,
       10.7395371
      ],
      [
       122.5128566,
       10.7397321
      ],
      [
       122.5127455,
       10.7399612
      ],
      [
       122.5126801,
       10.7401321
      ],
      [
       122.5124561,
       10.7402497
      ],
      [
       122.5124343,
       10.7403972
      ],
      [
       122.5126403,
       10.7406193
      ],
      [
       122.5128304,
       10.7407506
      ],
      [
       122.512854,
       10.7408456
      ],
      [
       122.5128012,
       10.7409253
      ],
      [
       122.512495,
       10.7410102
      ],
      [
       122.5123685,
       10.7411781
      ],
      [
       122.5123109,
       10.7414231
      ],
      [
       122.5123734,
       10.7415526
      ],
      [
       122.5126286,
       10.7416407
      ],
      [
       122.5126948,
       10.7417956
      ],
      [
       122.5125302,
       10.7419734
      ],
      [
       122.5121494,
       10.7421303
      ],
      [
       122.5121995,
       10.7423487
      ],
      [
       122.5124205,
       10.7424306
      ],
      [
       122.5124285,
       10.7428033
      ],
      [
       122.5127035,
       10.7430788
      ],
      [
       122.5126991,
       10.7433051
      ],
      [
       122.5127505,
       10.7437464
      ],
      [
       122.5126152,
       10.7438376
      ],
      [
       122.512301,
       10.7439645
      ],
      [
       122.5121849,
       10.7441177
      ],
      [
       122.512192,
       10.7443217
      ],
      [
       122.5121302,
       10.7444702
      ],
      [
       122.5119774,
       10.7445403
      ],
      [
       122.5119094,
       10.7446421
      ],
      [
       122.5118309,
       10.7449134
      ],
      [
       122.5117899,
       10.7450466
      ],
      [
       122.5117908,
       10.7452747
      ],
      [
       122.511686,
       10.7455046
      ],
      [
       122.5116575,
       10.7456798
      ],
      [
       122.5117302,
       10.7458809
      ],
      [
       122.5117603,
       10.7460538
      ],
      [
       122.5116907,
       10.7462364
      ],
      [
       122.5114554,
       10.7463137
      ],
      [
       122.5112405,
       10.7463852
      ],
      [
       122.511022,
       10.7465777
      ],
      [
       122.5106796,
       10.7466238
      ],
      [
       122.5105725,
       10.7471091
      ],
      [
       122.5106474,
       10.7476438
      ],
      [
       122.5104014,
       10.7478914
      ],
      [
       122.5100942,
       10.7478801
      ],
      [
       122.5097077,
       10.7479448
      ],
      [
       122.509392,
       10.748131
      ],
      [
       122.5093233,
       10.7483861
      ],
      [
       122.5091973,
       10.7484695
      ],
      [
       122.5089997,
       10.7485069
      ],
      [
       122.5084861,
       10.7485071
      ],
      [
       122.5082693,
       10.7485117
      ],
      [
       122.5081191,
       10.7485507
      ],
      [
       122.5081302,
       10.7488243
      ],
      [
       122.5080163,
       10.748977
      ],
      [
       122.5075764,
       10.7489485
      ],
      [
       122.5074977,
       10.749028
      ],
      [
       122.5074942,
       10.7492166
      ],
      [
       122.5075023,
       10.7495225
      ],
      [
       122.5073612,
       10.7497293
      ],
      [
       122.5069338,
       10.7499802
      ],
      [
       122.5067685,
       10.7504816
      ],
      [
       122.5066293,
       10.7505654
      ],
      [
       122.5063488,
       10.7504316
      ],
      [
       122.5062887,
       10.7502958
      ],
      [
       122.5060464,
       10.7501969
      ],
      [
       122.505875,
       10.7501718
      ],
      [
       122.5054535,
       10.7504536
      ],
      [
       122.5054173,
       10.7506793
      ],
      [
       122.5053596,
       10.7508836
      ],
      [
       122.5049717,
       10.7508726
      ],
      [
       122.5049826,
       10.751176
      ],
      [
       122.5047582,
       10.7512755
      ],
      [
       122.5043843,
       10.7510942
      ],
      [
       122.5045551,
       10.7513742
      ],
      [
       122.504348,
       10.7515102
      ],
      [
       122.5043276,
       10.7518127
      ],
      [
       122.5041624,
       10.7519055
      ],
      [
       122.5038824,
       10.7518867
      ],
      [
       122.5038817,
       10.7521356
      ],
      [
       122.5037821,
       10.7522658
      ],
      [
       122.5036993,
       10.7524886
      ],
      [
       122.5034954,
       10.7524048
      ],
      [
       122.5033607,
       10.7520988
      ],
      [
       122.503274,
       10.7519764
      ],
      [
       122.5029726,
       10.7519532
      ],
      [
       122.503061,
       10.7522095
      ],
      [
       122.5029605,
       10.7523778
      ],
      [
       122.5027682,
       10.7526373
      ],
      [
       122.5026272,
       10.7528795
      ],
      [
       122.502512,
       10.7530579
      ],
      [
       122.5024743,
       10.7533972
      ],
      [
       122.5025996,
       10.753639
      ],
      [
       122.502625,
       10.7538902
      ],
      [
       122.5025192,
       10.7541276
      ],
      [
       122.5022382,
       10.7542508
      ]
     ]
    ]
   }
  },
  {
   "type": "Feature",
   "properties": {
    "name": "Leganes",
    "osm_id": 3492693,
    "admin_level": "6",
    "region": "iloilo",
    "franchise": "MORE"
   },
   "geometry": {
    "type": "Polygon",
    "coordinates": [
     [
      [
       122.5753243,
       10.7786402
      ],
      [
       122.5712575,
       10.7811925
      ],
      [
       122.567413,
       10.7845532
      ],
      [
       122.5667908,
       10.7844161
      ],
      [
       122.5601925,
       10.7905657
      ],
      [
       122.5582908,
       10.7917819
      ],
      [
       122.5593457,
       10.7993756
      ],
      [
       122.5603191,
       10.8041976
      ],
      [
       122.5760169,
       10.8070968
      ],
      [
       122.5806056,
       10.8112706
      ],
      [
       122.5822931,
       10.8122605
      ],
      [
       122.5843765,
       10.8126263
      ],
      [
       122.5877946,
       10.8117379
      ],
      [
       122.5901933,
       10.812105
      ],
      [
       122.5966288,
       10.8121431
      ],
      [
       122.6024097,
       10.8150397
      ],
      [
       122.6027425,
       10.8145243
      ],
      [
       122.6029573,
       10.8136429
      ],
      [
       122.6030227,
       10.8131714
      ],
      [
       122.603308,
       10.8125525
      ],
      [
       122.6038657,
       10.8119606
      ],
      [
       122.6047035,
       10.8116478
      ],
      [
       122.6064199,
       10.8117712
      ],
      [
       122.6074429,
       10.8124903
      ],
      [
       122.6076575,
       10.8128994
      ],
      [
       122.6076898,
       10.8133612
      ],
      [
       122.6066292,
       10.8138546
      ],
      [
       122.606246,
       10.8142232
      ],
      [
       122.6060989,
       10.8149923
      ],
      [
       122.6064757,
       10.8154858
      ],
      [
       122.6075304,
       10.8155121
      ],
      [
       122.6084992,
       10.8153487
      ],
      [
       122.6109971,
       10.8141425
      ],
      [
       122.6119599,
       10.8134708
      ],
      [
       122.6125321,
       10.8131693
      ],
      [
       122.612239,
       10.8126484
      ],
      [
       122.6115499,
       10.8121274
      ],
      [
       122.6111366,
       10.8108117
      ],
      [
       122.6106901,
       10.8096054
      ],
      [
       122.6096155,
       10.8092765
      ],
      [
       122.6082759,
       10.8090572
      ],
      [
       122.6077875,
       10.8085089
      ],
      [
       122.6076619,
       10.8077824
      ],
      [
       122.607941,
       10.806631
      ],
      [
       122.6089038,
       10.806302
      ],
      [
       122.6102156,
       10.8065761
      ],
      [
       122.6112901,
       10.8071518
      ],
      [
       122.611364,
       10.807088
      ],
      [
       122.6114005,
       10.8067707
      ],
      [
       122.6114946,
       10.8064528
      ],
      [
       122.6115134,
       10.8063568
      ],
      [
       122.6112343,
       10.8058496
      ],
      [
       122.6117506,
       10.8050957
      ],
      [
       122.6136485,
       10.8041088
      ],
      [
       122.6149463,
       10.8041225
      ],
      [
       122.6158533,
       10.8048216
      ],
      [
       122.6167046,
       10.8054247
      ],
      [
       122.6177512,
       10.8053973
      ],
      [
       122.6188676,
       10.8050135
      ],
      [
       122.6194537,
       10.8050272
      ],
      [
       122.6200119,
       10.8060278
      ],
      [
       122.620291,
       10.8074808
      ],
      [
       122.6208714,
       10.8083843
      ],
      [
       122.621625,
       10.808864
      ],
      [
       122.6224623,
       10.8087749
      ],
      [
       122.6228042,
       10.8084665
      ],
      [
       122.622853,
       10.8079114
      ],
      [
       122.6228181,
       10.8071643
      ],
      [
       122.6226298,
       10.8061843
      ],
      [
       122.622253,
       10.805211
      ],
      [
       122.6213668,
       10.8044366
      ],
      [
       122.619769,
       10.8040528
      ],
      [
       122.6188968,
       10.8037032
      ],
      [
       122.6186038,
       10.8032714
      ],
      [
       122.6190294,
       10.8027848
      ],
      [
       122.6199225,
       10.802072
      ],
      [
       122.6205226,
       10.8014209
      ],
      [
       122.6207738,
       10.800482
      ],
      [
       122.6207249,
       10.799728
      ],
      [
       122.620069,
       10.7988919
      ],
      [
       122.6188899,
       10.798556
      ],
      [
       122.6183649,
       10.7981554
      ],
      [
       122.6180456,
       10.7979118
      ],
      [
       122.617913,
       10.7970962
      ],
      [
       122.6185968,
       10.796541
      ],
      [
       122.6193643,
       10.7967809
      ],
      [
       122.6211226,
       10.7981037
      ],
      [
       122.6224623,
       10.7988782
      ],
      [
       122.6230275,
       10.7990084
      ],
      [
       122.6236066,
       10.7987685
      ],
      [
       122.623774,
       10.7981037
      ],
      [
       122.623467,
       10.7969934
      ],
      [
       122.623474,
       10.7964656
      ],
      [
       122.6235213,
       10.7964465
      ],
      [
       122.624409,
       10.7960886
      ],
      [
       122.626579,
       10.7957322
      ],
      [
       122.6278837,
       10.79565
      ],
      [
       122.6288606,
       10.7963148
      ],
      [
       122.6289513,
       10.797103
      ],
      [
       122.6288815,
       10.7975896
      ],
      [
       122.6287559,
       10.7979803
      ],
      [
       122.6288327,
       10.7989467
      ],
      [
       122.6294257,
       10.7998377
      ],
      [
       122.6304305,
       10.8000091
      ],
      [
       122.6311701,
       10.7998651
      ],
      [
       122.6315259,
       10.7993374
      ],
      [
       122.6313166,
       10.798371
      ],
      [
       122.6309677,
       10.7974252
      ],
      [
       122.6310933,
       10.7959721
      ],
      [
       122.631404,
       10.7942671
      ],
      [
       122.631498,
       10.7939639
      ],
      [
       122.6313406,
       10.7932657
      ],
      [
       122.6315685,
       10.7926141
      ],
      [
       122.6326912,
       10.792058
      ],
      [
       122.63429,
       10.7912742
      ],
      [
       122.6359566,
       10.7901357
      ],
      [
       122.6370546,
       10.7898231
      ],
      [
       122.6383089,
       10.7897892
      ],
      [
       122.6397885,
       10.7904884
      ],
      [
       122.6416778,
       10.7918404
      ],
      [
       122.6430595,
       10.7922654
      ],
      [
       122.6445275,
       10.7920042
      ],
      [
       122.6458235,
       10.791107
      ],
      [
       122.6464002,
       10.789882
      ],
      [
       122.6468564,
       10.7885312
      ],
      [
       122.6468833,
       10.7869706
      ],
      [
       122.6466427,
       10.7850593
      ],
      [
       122.646117,
       10.7815281
      ],
      [
       122.6443123,
       10.7756304
      ],
      [
       122.6439278,
       10.7730511
      ],
      [
       122.6494203,
       10.7649526
      ],
      [
       122.6337098,
       10.7586287
      ],
      [
       122.6171611,
       10.7507653
      ],
      [
       122.606954,
       10.7519658
      ],
      [
       122.5953357,
       10.7600265
      ],
      [
       122.5941892,
       10.760539
      ],
      [
       122.5912601,
       10.7634089
      ],
      [
       122.5904854,
       10.7641916
      ],
      [
       122.588783,
       10.7659307
      ],
      [
       122.5870438,
       10.7673747
      ],
      [
       122.5874602,
       10.7679306
      ],
      [
       122.5879274,
       10.7683096
      ],
      [
       122.5876444,
       10.7690146
      ],
      [
       122.586565,
       10.7697574
      ],
      [
       122.5868171,
       10.7701263
      ],
      [
       122.5872255,
       10.7704447
      ],
      [
       122.5871857,
       10.7711503
      ],
      [
       122.5863799,
       10.7718785
      ],
      [
       122.5862921,
       10.7725453
      ],
      [
       122.5854729,
       10.7728839
      ],
      [
       122.5852519,
       10.7729778
      ],
      [
       122.5849749,
       10.7730086
      ],
      [
       122.5847667,
       10.7730451
      ],
      [
       122.5843912,
       10.7730004
      ],
      [
       122.5837945,
       10.7728728
      ],
      [
       122.5834797,
       10.7726414
      ],
      [
       122.5831089,
       10.7723046
      ],
      [
       122.58278,
       10.7718716
      ],
      [
       122.5818265,
       10.7723273
      ],
      [
       122.5815688,
       10.7723601
      ],
      [
       122.581282,
       10.7723089
      ],
      [
       122.5809939,
       10.7720323
      ],
      [
       122.5808526,
       10.7720333
      ],
      [
       122.5804154,
       10.7724154
      ],
      [
       122.5804826,
       10.7725745
      ],
      [
       122.5802917,
       10.7727937
      ],
      [
       122.5799643,
       10.7728345
      ],
      [
       122.5796195,
       10.7732707
      ],
      [
       122.5791217,
       10.7735541
      ],
      [
       122.579072,
       10.7739089
      ],
      [
       122.5776266,
       10.7759746
      ],
      [
       122.5768016,
       10.7777179
      ],
      [
       122.5753243,
       10.7786402
      ]
     ]
    ]
   }
  },
  {
   "type": "Feature",
   "properties": {
    "name": "Oton",
    "osm_id": 3499052,
    "admin_level": "6",
    "region": "iloilo",
    "franchise": "MORE"
   },
   "geometry": {
    "type": "Polygon",
    "coordinates": [
     [
      [
       122.4211719,
       10.753093
      ],
      [
       122.4266061,
       10.7590369
      ],
      [
       122.4293058,
       10.7619898
      ],
      [
       122.4348483,
       10.7687992
      ],
      [
       122.4456519,
       10.7698802
      ],
      [
       122.4570913,
       10.7696955
      ],
      [
       122.4591185,
       10.7704161
      ],
      [
       122.4595322,
       10.7712099
      ],
      [
       122.4635843,
       10.7699916
      ],
      [
       122.4769552,
       10.7672113
      ],
      [
       122.484118,
       10.7617706
      ],
      [
       122.4843155,
       10.7616374
      ],
      [
       122.4843901,
       10.7614261
      ],
      [
       122.4846155,
       10.7612402
      ],
      [
       122.4845745,
       10.7610342
      ],
      [
       122.4844548,
       10.760747
      ],
      [
       122.4844727,
       10.7604856
      ],
      [
       122.4847774,
       10.7603307
      ],
      [
       122.4850025,
       10.7600873
      ],
      [
       122.4852934,
       10.7598977
      ],
      [
       122.4857292,
       10.7597233
      ],
      [
       122.4859837,
       10.7594713
      ],
      [
       122.4861557,
       10.7591802
      ],
      [
       122.4863086,
       10.7588388
      ],
      [
       122.4864389,
       10.7586157
      ],
      [
       122.4866461,
       10.7583922
      ],
      [
       122.4867678,
       10.7582358
      ],
      [
       122.4870876,
       10.7581382
      ],
      [
       122.4873106,
       10.757973
      ],
      [
       122.4874665,
       10.7577291
      ],
      [
       122.487647,
       10.7577811
      ],
      [
       122.487881,
       10.7580279
      ],
      [
       122.4882463,
       10.7579582
      ],
      [
       122.4885216,
       10.7576568
      ],
      [
       122.4886164,
       10.7573881
      ],
      [
       122.4888157,
       10.7572234
      ],
      [
       122.488955,
       10.7570436
      ],
      [
       122.4891304,
       10.7569535
      ],
      [
       122.489435,
       10.7569253
      ],
      [
       122.489833,
       10.7569244
      ],
      [
       122.4900263,
       10.7570082
      ],
      [
       122.4902062,
       10.7571962
      ],
      [
       122.4903082,
       10.7574594
      ],
      [
       122.4904491,
       10.7574981
      ],
      [
       122.4904683,
       10.7573758
      ],
      [
       122.4905421,
       10.7572255
      ],
      [
       122.4906621,
       10.7568912
      ],
      [
       122.4909683,
       10.7567173
      ],
      [
       122.4910353,
       10.756688
      ],
      [
       122.4915202,
       10.7565419
      ],
      [
       122.4921603,
       10.7561265
      ],
      [
       122.49273,
       10.7560818
      ],
      [
       122.4935671,
       10.7559855
      ],
      [
       122.4943219,
       10.7557779
      ],
      [
       122.4946692,
       10.7563191
      ],
      [
       122.4952515,
       10.7567022
      ],
      [
       122.495931,
       10.7567437
      ],
      [
       122.4967739,
       10.7569064
      ],
      [
       122.4970536,
       10.7565717
      ],
      [
       122.4976599,
       10.7561577
      ],
      [
       122.4982955,
       10.7558956
      ],
      [
       122.4985688,
       10.7557477
      ],
      [
       122.4987047,
       10.7556157
      ],
      [
       122.4988413,
       10.7555465
      ],
      [
       122.4990896,
       10.7553931
      ],
      [
       122.499319,
       10.755287
      ],
      [
       122.4995178,
       10.7554098
      ],
      [
       122.4996553,
       10.755351
      ],
      [
       122.4998501,
       10.7552359
      ],
      [
       122.4999627,
       10.7549207
      ],
      [
       122.5001059,
       10.7547336
      ],
      [
       122.5002992,
       10.7546412
      ],
      [
       122.5005082,
       10.7546389
      ],
      [
       122.5007455,
       10.754821
      ],
      [
       122.5008644,
       10.7548766
      ],
      [
       122.5010233,
       10.7548299
      ],
      [
       122.501297,
       10.7546272
      ],
      [
       122.5014456,
       10.7545646
      ],
      [
       122.5016544,
       10.7547176
      ],
      [
       122.5018408,
       10.7544856
      ],
      [
       122.501912,
       10.7542981
      ],
      [
       122.5022382,
       10.7542508
      ],
      [
       122.5025192,
       10.7541276
      ],
      [
       122.502625,
       10.7538902
      ],
      [
       122.5025996,
       10.753639
      ],
      [
       122.5024743,
       10.7533972
      ],
      [
       122.502512,
       10.7530579
      ],
      [
       122.5026272,
       10.7528795
      ],
      [
       122.5027682,
       10.7526373
      ],
      [
       122.5029605,
       10.7523778
      ],
      [
       122.503061,
       10.7522095
      ],
      [
       122.5029726,
       10.7519532
      ],
      [
       122.503274,
       10.7519764
      ],
      [
       122.5033607,
       10.7520988
      ],
      [
       122.5034954,
       10.7524048
      ],
      [
       122.5036993,
       10.7524886
      ],
      [
       122.5037821,
       10.7522658
      ],
      [
       122.5038817,
       10.7521356
      ],
      [
       122.5038824,
       10.7518867
      ],
      [
       122.5041624,
       10.7519055
      ],
      [
       122.5043276,
       10.7518127
      ],
      [
       122.504348,
       10.7515102
      ],
      [
       122.5045551,
       10.7513742
      ],
      [
       122.5043843,
       10.7510942
      ],
      [
       122.5047582,
       10.7512755
      ],
      [
       122.5049826,
       10.751176
      ],
      [
       122.5049717,
       10.7508726
      ],
      [
       122.5053596,
       10.7508836
      ],
      [
       122.5054173,
       10.7506793
      ],
      [
       122.5054535,
       10.7504536
      ],
      [
       122.505875,
       10.7501718
      ],
      [
       122.5060464,
       10.7501969
      ],
      [
       122.5062887,
       10.7502958
      ],
      [
       122.5063488,
       10.7504316
      ],
      [
       122.5066293,
       10.7505654
      ],
      [
       122.5067685,
       10.7504816
      ],
      [
       122.5069338,
       10.7499802
      ],
      [
       122.5073612,
       10.7497293
      ],
      [
       122.5075023,
       10.7495225
      ],
      [
       122.5074942,
       10.7492166
      ],
      [
       122.5074977,
       10.749028
      ],
      [
       122.5075764,
       10.7489485
      ],
      [
       122.5080163,
       10.748977
      ],
      [
       122.5081302,
       10.7488243
      ],
      [
       122.5081191,
       10.7485507
      ],
      [
       122.5082693,
       10.7485117
      ],
      [
       122.5084861,
       10.7485071
      ],
      [
       122.5089997,
       10.7485069
      ],
      [
       122.5091973,
       10.7484695
      ],
      [
       122.5093233,
       10.7483861
      ],
      [
       122.509392,
       10.748131
      ],
      [
       122.5097077,
       10.7479448
      ],
      [
       122.5100942,
       10.7478801
      ],
      [
       122.5104014,
       10.7478914
      ],
      [
       122.5106474,
       10.7476438
      ],
      [
       122.5105725,
       10.7471091
      ],
      [
       122.5106796,
       10.7466238
      ],
      [
       122.511022,
       10.7465777
      ],
      [
       122.5112405,
       10.7463852
      ],
      [
       122.5114554,
       10.7463137
      ],
      [
       122.5116907,
       10.7462364
      ],
      [
       122.5117603,
       10.7460538
      ],
      [
       122.5117302,
       10.7458809
      ],
      [
       122.5116575,
       10.7456798
      ],
      [
       122.511686,
       10.7455046
      ],
      [
       122.5117908,
       10.7452747
      ],
      [
       122.5117899,
       10.7450466
      ],
      [
       122.5118309,
       10.7449134
      ],
      [
       122.5119094,
       10.7446421
      ],
      [
       122.5119774,
       10.7445403
      ],
      [
       122.5121302,
       10.7444702
      ],
      [
       122.512192,
       10.7443217
      ],
      [
       122.5121849,
       10.7441177
      ],
      [
       122.512301,
       10.7439645
      ],
      [
       122.5126152,
       10.7438376
      ],
      [
       122.5127505,
       10.7437464
      ],
      [
       122.5126991,
       10.7433051
      ],
      [
       122.5127035,
       10.7430788
      ],
      [
       122.5124285,
       10.7428033
      ],
      [
       122.5124205,
       10.7424306
      ],
      [
       122.5121995,
       10.7423487
      ],
      [
       122.5121494,
       10.7421303
      ],
      [
       122.5125302,
       10.7419734
      ],
      [
       122.5126948,
       10.7417956
      ],
      [
       122.5126286,
       10.7416407
      ],
      [
       122.5123734,
       10.7415526
      ],
      [
       122.5123109,
       10.7414231
      ],
      [
       122.5123685,
       10.7411781
      ],
      [
       122.512495,
       10.7410102
      ],
      [
       122.5128012,
       10.7409253
      ],
      [
       122.512854,
       10.7408456
      ],
      [
       122.5128304,
       10.7407506
      ],
      [
       122.5126403,
       10.7406193
      ],
      [
       122.5124343,
       10.7403972
      ],
      [
       122.5124561,
       10.7402497
      ],
      [
       122.5126801,
       10.7401321
      ],
      [
       122.5127455,
       10.7399612
      ],
      [
       122.5128566,
       10.7397321
      ],
      [
       122.5130801,
       10.7395371
      ],
      [
       122.5133048,
       10.7393833
      ],
      [
       122.5134201,
       10.7391814
      ],
      [
       122.5133684,
       10.7390422
      ],
      [
       122.5134782,
       10.7388761
      ],
      [
       122.5134068,
       10.7387927
      ],
      [
       122.5135275,
       10.7386108
      ],
      [
       122.5135436,
       10.7384053
      ],
      [
       122.5137099,
       10.738213
      ],
      [
       122.5137233,
       10.7380575
      ],
      [
       122.5136266,
       10.7378199
      ],
      [
       122.5136982,
       10.7377173
      ],
      [
       122.5138181,
       10.7376285
      ],
      [
       122.5139997,
       10.7375217
      ],
      [
       122.5141667,
       10.7374155
      ],
      [
       122.5142463,
       10.7372927
      ],
      [
       122.514358,
       10.7372179
      ],
      [
       122.5145333,
       10.7372378
      ],
      [
       122.5147047,
       10.7371441
      ],
      [
       122.5147477,
       10.7370106
      ],
      [
       122.5146361,
       10.7368574
      ],
      [
       122.5146374,
       10.7367082
      ],
      [
       122.5147222,
       10.736557
      ],
      [
       122.5149566,
       10.7363031
      ],
      [
       122.5150896,
       10.7361147
      ],
      [
       122.5154154,
       10.7359595
      ],
      [
       122.515686,
       10.7357572
      ],
      [
       122.515983,
       10.7354279
      ],
      [
       122.5160848,
       10.7351418
      ],
      [
       122.5159673,
       10.7346371
      ],
      [
       122.5158791,
       10.7340755
      ],
      [
       122.5156994,
       10.7337822
      ],
      [
       122.5154973,
       10.7335101
      ],
      [
       122.5154335,
       10.733259
      ],
      [
       122.515498,
       10.7330635
      ],
      [
       122.515845,
       10.7326973
      ],
      [
       122.5159348,
       10.7325985
      ],
      [
       122.5159185,
       10.732477
      ],
      [
       122.515765,
       10.7323489
      ],
      [
       122.515712,
       10.7321055
      ],
      [
       122.515847,
       10.7314971
      ],
      [
       122.5161267,
       10.7313301
      ],
      [
       122.5162148,
       10.7310731
      ],
      [
       122.5163134,
       10.7305532
      ],
      [
       122.5164658,
       10.7303348
      ],
      [
       122.5167433,
       10.7299989
      ],
      [
       122.516779,
       10.7297283
      ],
      [
       122.516499,
       10.7294824
      ],
      [
       122.5163977,
       10.729247
      ],
      [
       122.5164722,
       10.7290838
      ],
      [
       122.5167482,
       10.7289347
      ],
      [
       122.5167307,
       10.7286381
      ],
      [
       122.5167874,
       10.7283212
      ],
      [
       122.5168437,
       10.7279951
      ],
      [
       122.5169894,
       10.7277224
      ],
      [
       122.5170991,
       10.7273553
      ],
      [
       122.5170286,
       10.7269425
      ],
      [
       122.5171549,
       10.7267663
      ],
      [
       122.5175378,
       10.726777
      ],
      [
       122.5177696,
       10.7265929
      ],
      [
       122.5178922,
       10.726302
      ],
      [
       122.5178136,
       10.7259126
      ],
      [
       122.5176892,
       10.7257745
      ],
      [
       122.5177699,
       10.725535
      ],
      [
       122.5177976,
       10.7252996
      ],
      [
       122.5177435,
       10.7250831
      ],
      [
       122.5177968,
       10.7248917
      ],
      [
       122.5178291,
       10.7246629
      ],
      [
       122.5181566,
       10.7244606
      ],
      [
       122.5183594,
       10.7242496
      ],
      [
       122.5185928,
       10.7241351
      ],
      [
       122.5186309,
       10.7239342
      ],
      [
       122.5183821,
       10.7238606
      ],
      [
       122.5183274,
       10.7237084
      ],
      [
       122.5183835,
       10.7235583
      ],
      [
       122.5183568,
       10.7233976
      ],
      [
       122.5183396,
       10.7231329
      ],
      [
       122.5185728,
       10.7229744
      ],
      [
       122.518935,
       10.7228625
      ],
      [
       122.5191158,
       10.7229134
      ],
      [
       122.5193855,
       10.7231922
      ],
      [
       122.5195766,
       10.7231543
      ],
      [
       122.5197159,
       10.7229835
      ],
      [
       122.5197576,
       10.7228206
      ],
      [
       122.5198305,
       10.7223803
      ],
      [
       122.5200273,
       10.7221488
      ],
      [
       122.5207121,
       10.7215933
      ],
      [
       122.5211012,
       10.7214855
      ],
      [
       122.521233,
       10.721329
      ],
      [
       122.5212796,
       10.7211493
      ],
      [
       122.5212507,
       10.7209934
      ],
      [
       122.5211375,
       10.7208709
      ],
      [
       122.5209906,
       10.7207948
      ],
      [
       122.5207804,
       10.7207152
      ],
      [
       122.5207053,
       10.7206154
      ],
      [
       122.5206561,
       10.7204449
      ],
      [
       122.5207118,
       10.7202416
      ],
      [
       122.5209351,
       10.7201539
      ],
      [
       122.5210223,
       10.7199827
      ],
      [
       122.5210846,
       10.7196826
      ],
      [
       122.5210677,
       10.7191507
      ],
      [
       122.5209697,
       10.718683
      ],
      [
       122.5209393,
       10.7182469
      ],
      [
       122.52106,
       10.7178117
      ],
      [
       122.5213276,
       10.717342
      ],
      [
       122.5218272,
       10.7167844
      ],
      [
       122.5224134,
       10.7164555
      ],
      [
       122.5226686,
       10.716258
      ],
      [
       122.5227244,
       10.7156597
      ],
      [
       122.5229317,
       10.7151303
      ],
      [
       122.5230474,
       10.7149564
      ],
      [
       122.523202,
       10.7148277
      ],
      [
       122.523258,
       10.7146623
      ],
      [
       122.5233263,
       10.7145178
      ],
      [
       122.5234167,
       10.7144111
      ],
      [
       122.5234866,
       10.7143821
      ],
      [
       122.5235654,
       10.7143758
      ],
      [
       122.5237035,
       10.7143903
      ],
      [
       122.5238415,
       10.7143735
      ],
      [
       122.5240444,
       10.7142473
      ],
      [
       122.5241447,
       10.7141434
      ],
      [
       122.5241565,
       10.7140812
      ],
      [
       122.5240916,
       10.7139263
      ],
      [
       122.524055,
       10.713815
      ],
      [
       122.5240498,
       10.7136332
      ],
      [
       122.5240959,
       10.7134689
      ],
      [
       122.5241281,
       10.7131963
      ],
      [
       122.5240748,
       10.7131049
      ],
      [
       122.5239932,
       10.7130971
      ],
      [
       122.5236569,
       10.713073
      ],
      [
       122.5234999,
       10.7129558
      ],
      [
       122.5234826,
       10.7128525
      ],
      [
       122.5236736,
       10.7124931
      ],
      [
       122.5236907,
       10.7122283
      ],
      [
       122.5234974,
       10.7120515
      ],
      [
       122.5230873,
       10.7120081
      ],
      [
       122.5228862,
       10.7118699
      ],
      [
       122.5227212,
       10.7118538
      ],
      [
       122.5225278,
       10.71182
      ],
      [
       122.5223667,
       10.7117018
      ],
      [
       122.5223395,
       10.7115128
      ],
      [
       122.5224646,
       10.7114138
      ],
      [
       122.5227211,
       10.7114202
      ],
      [
       122.5230706,
       10.7113172
      ],
      [
       122.5232052,
       10.7111213
      ],
      [
       122.5232333,
       10.7109473
      ],
      [
       122.5231159,
       10.7108247
      ],
      [
       122.5229244,
       10.7108187
      ],
      [
       122.5227196,
       10.7108523
      ],
      [
       122.5226057,
       10.7109939
      ],
      [
       122.5224354,
       10.7110062
      ],
      [
       122.5222337,
       10.7109577
      ],
      [
       122.5220105,
       10.7108196
      ],
      [
       122.5219899,
       10.7106508
      ],
      [
       122.5221231,
       10.7105846
      ],
      [
       122.5224403,
       10.710576
      ],
      [
       122.5225657,
       10.7105187
      ],
      [
       122.5228433,
       10.7104226
      ],
      [
       122.5229114,
       10.7103106
      ],
      [
       122.5228939,
       10.710163
      ],
      [
       122.5226739,
       10.7100382
      ],
      [
       122.5225189,
       10.7100632
      ],
      [
       122.5223377,
       10.7101121
      ],
      [
       122.5221446,
       10.7100523
      ],
      [
       122.5219194,
       10.7099925
      ],
      [
       122.5216154,
       10.7099002
      ],
      [
       122.5214973,
       10.7097143
      ],
      [
       122.5211679,
       10.7094439
      ],
      [
       122.5206696,
       10.7092559
      ],
      [
       122.5204061,
       10.7090737
      ],
      [
       122.5203167,
       10.7090119
      ],
      [
       122.5200838,
       10.7087491
      ],
      [
       122.5199346,
       10.70859
      ],
      [
       122.5196369,
       10.7083556
      ],
      [
       122.5194469,
       10.7082897
      ],
      [
       122.5193143,
       10.7082238
      ],
      [
       122.5192353,
       10.7080643
      ],
      [
       122.5192369,
       10.7079278
      ],
      [
       122.5192478,
       10.7076759
      ],
      [
       122.5191501,
       10.7075435
      ],
      [
       122.5190194,
       10.7075259
      ],
      [
       122.5187823,
       10.707524
      ],
      [
       122.5186305,
       10.7074725
      ],
      [
       122.5186105,
       10.7073387
      ],
      [
       122.5187039,
       10.707111
      ],
      [
       122.5188425,
       10.7070317
      ],
      [
       122.5189775,
       10.7069906
      ],
      [
       122.5191931,
       10.7069166
      ],
      [
       122.5191992,
       10.706751
      ],
      [
       122.5189685,
       10.7065504
      ],
      [
       122.5188013,
       10.7063352
      ],
      [
       122.5185526,
       10.7060176
      ],
      [
       122.5184269,
       10.705677
      ],
      [
       122.5185397,
       10.705469
      ],
      [
       122.5186028,
       10.705007
      ],
      [
       122.5184268,
       10.7049016
      ],
      [
       122.5181961,
       10.7049636
      ],
      [
       122.5180077,
       10.7050963
      ],
      [
       122.5179227,
       10.7054222
      ],
      [
       122.5178974,
       10.7056559
      ],
      [
       122.5178486,
       10.7058282
      ],
      [
       122.5177882,
       10.7059508
      ],
      [
       122.5176736,
       10.7060218
      ],
      [
       122.5175368,
       10.7059795
      ],
      [
       122.517449,
       10.7058627
      ],
      [
       122.5174315,
       10.7057593
      ],
      [
       122.5174023,
       10.7056156
      ],
      [
       122.5173516,
       10.7055371
      ],
      [
       122.5172658,
       10.7054701
      ],
      [
       122.5171235,
       10.705493
      ],
      [
       122.517067,
       10.705585
      ],
      [
       122.5170978,
       10.7057921
      ],
      [
       122.5170923,
       10.7059763
      ],
      [
       122.5169985,
       10.7060576
      ],
      [
       122.5168359,
       10.7060576
      ],
      [
       122.5166567,
       10.7059411
      ],
      [
       122.5165575,
       10.7057786
      ],
      [
       122.5164389,
       10.705505
      ],
      [
       122.5164141,
       10.7053289
      ],
      [
       122.51645,
       10.7051556
      ],
      [
       122.5166264,
       10.7050093
      ],
      [
       122.5169021,
       10.7048874
      ],
      [
       122.516993,
       10.7048115
      ],
      [
       122.5170564,
       10.7047574
      ],
      [
       122.5170675,
       10.7046734
      ],
      [
       122.5170509,
       10.7045921
      ],
      [
       122.5170013,
       10.704519
      ],
      [
       122.5168828,
       10.7045
      ],
      [
       122.5166347,
       10.7045515
      ],
      [
       122.5162956,
       10.7047438
      ],
      [
       122.5161412,
       10.7048603
      ],
      [
       122.516053,
       10.7048468
      ],
      [
       122.5158021,
       10.704603
      ],
      [
       122.5155706,
       10.7043104
      ],
      [
       122.5154355,
       10.7041723
      ],
      [
       122.5152018,
       10.7040055
      ],
      [
       122.5149041,
       10.7038267
      ],
      [
       122.514656,
       10.7036046
      ],
      [
       122.5143748,
       10.7034448
      ],
      [
       122.5142976,
       10.7033283
      ],
      [
       122.5142756,
       10.7032335
      ],
      [
       122.5143666,
       10.7029816
      ],
      [
       122.514441,
       10.7026673
      ],
      [
       122.5144934,
       10.702261
      ],
      [
       122.5145513,
       10.7015811
      ],
      [
       122.5145099,
       10.7012154
      ],
      [
       122.5145182,
       10.7009554
      ],
      [
       122.5145733,
       10.700801
      ],
      [
       122.5147194,
       10.7006141
      ],
      [
       122.5151439,
       10.7004516
      ],
      [
       122.5156374,
       10.7003188
      ],
      [
       122.5159544,
       10.7001672
      ],
      [
       122.5160922,
       10.700048
      ],
      [
       122.5161171,
       10.6998584
      ],
      [
       122.516073,
       10.6997202
      ],
      [
       122.5159792,
       10.6994845
      ],
      [
       122.5158607,
       10.6993085
      ],
      [
       122.5156925,
       10.6991784
      ],
      [
       122.5155492,
       10.6990918
      ],
      [
       122.5153893,
       10.6990511
      ],
      [
       122.5151688,
       10.6990809
      ],
      [
       122.5148986,
       10.6992408
      ],
      [
       122.5146753,
       10.6994629
      ],
      [
       122.5142094,
       10.6997852
      ],
      [
       122.513523,
       10.7000182
      ],
      [
       122.5133852,
       10.7000263
      ],
      [
       122.5132308,
       10.70001
      ],
      [
       122.5131398,
       10.6999017
      ],
      [
       122.513126,
       10.6997392
      ],
      [
       122.5133245,
       10.6991812
      ],
      [
       122.513523,
       10.6987396
      ],
      [
       122.5136305,
       10.6984904
      ],
      [
       122.513738,
       10.6983794
      ],
      [
       122.5139641,
       10.6982737
      ],
      [
       122.51435,
       10.6982033
      ],
      [
       122.5146753,
       10.6980706
      ],
      [
       122.5148903,
       10.6979541
      ],
      [
       122.5149648,
       10.697862
      ],
      [
       122.5149951,
       10.697732
      ],
      [
       122.5149648,
       10.6976317
      ],
      [
       122.5148324,
       10.697545
      ],
      [
       122.5146229,
       10.6975153
      ],
      [
       122.5142315,
       10.6975396
      ],
      [
       122.5134596,
       10.6977238
      ],
      [
       122.5125251,
       10.6979487
      ],
      [
       122.5120084,
       10.6981507
      ],
      [
       122.5115674,
       10.6982211
      ],
      [
       122.5113,
       10.6981669
      ],
      [
       122.5110518,
       10.6980884
      ],
      [
       122.5109554,
       10.6980261
      ],
      [
       122.5109113,
       10.6978879
      ],
      [
       122.5109085,
       10.6976956
      ],
      [
       122.5109526,
       10.6975195
      ],
      [
       122.51122,
       10.6970347
      ],
      [
       122.5114626,
       10.6965877
      ],
      [
       122.5117052,
       10.6963764
      ],
      [
       122.5119891,
       10.6962708
      ],
      [
       122.5129154,
       10.6962572
      ],
      [
       122.5132379,
       10.6962356
      ],
      [
       122.5134585,
       10.6961706
      ],
      [
       122.5136376,
       10.696073
      ],
      [
       122.5137066,
       10.6959918
      ],
      [
       122.5137396,
       10.6958699
      ],
      [
       122.5136928,
       10.6957426
      ],
      [
       122.5135853,
       10.6955746
      ],
      [
       122.5134612,
       10.6955096
      ],
      [
       122.5130477,
       10.6952821
      ],
      [
       122.5127417,
       10.6951358
      ],
      [
       122.5123282,
       10.6950654
      ],
      [
       122.512025,
       10.6950627
      ],
      [
       122.5115315,
       10.6950139
      ],
      [
       122.5111428,
       10.694892
      ],
      [
       122.5110629,
       10.6948297
      ],
      [
       122.5109857,
       10.6947349
      ],
      [
       122.5109443,
       10.6945994
      ],
      [
       122.5109691,
       10.6943259
      ],
      [
       122.5110904,
       10.6941227
      ],
      [
       122.5113383,
       10.6935813
      ],
      [
       122.5115481,
       10.6930663
      ],
      [
       122.5117245,
       10.6927087
      ],
      [
       122.5120167,
       10.6923186
      ],
      [
       122.5122758,
       10.6919881
      ],
      [
       122.5124908,
       10.6917552
      ],
      [
       122.512722,
       10.6916461
      ],
      [
       122.5126514,
       10.6915618
      ],
      [
       122.5125899,
       10.6913832
      ],
      [
       122.5124489,
       10.6912281
      ],
      [
       122.512171,
       10.6911222
      ],
      [
       122.511918,
       10.6911018
      ],
      [
       122.5106782,
       10.6911543
      ],
      [
       122.5100928,
       10.6912535
      ],
      [
       122.5094139,
       10.6915114
      ],
      [
       122.5091666,
       10.6916924
      ],
      [
       122.5083994,
       10.6924611
      ],
      [
       122.5081294,
       10.6928975
      ],
      [
       122.5077913,
       10.6933662
      ],
      [
       122.5075628,
       10.6935662
      ],
      [
       122.5074264,
       10.6936856
      ],
      [
       122.5072522,
       10.6941318
      ],
      [
       122.5070987,
       10.6942928
      ],
      [
       122.5068976,
       10.6944069
      ],
      [
       122.5066052,
       10.6944171
      ],
      [
       122.5059036,
       10.6941796
      ],
      [
       122.505621,
       10.694001
      ],
      [
       122.5054377,
       10.6937854
      ],
      [
       122.5050126,
       10.6935205
      ],
      [
       122.5042053,
       10.6933488
      ],
      [
       122.5037813,
       10.693334
      ],
      [
       122.5032615,
       10.6933687
      ],
      [
       122.5027896,
       10.6934679
      ],
      [
       122.5012527,
       10.6940382
      ],
      [
       122.5002433,
       10.6945763
      ],
      [
       122.49909,
       10.6947821
      ],
      [
       122.498825,
       10.6948144
      ],
      [
       122.4986818,
       10.6947964
      ],
      [
       122.4986771,
       10.6947228
      ],
      [
       122.4986728,
       10.694671
      ],
      [
       122.49834,
       10.6919447
      ],
      [
       122.4969201,
       10.6858946
      ],
      [
       122.4952285,
       10.6826942
      ],
      [
       122.4946233,
       10.6815544
      ],
      [
       122.487965,
       10.639315
      ],
      [
       122.4720334,
       10.6330114
      ],
      [
       122.4569744,
       10.6250391
      ],
      [
       122.4478854,
       10.6186254
      ],
      [
       122.4341547,
       10.6064902
      ],
      [
       122.4215582,
       10.6805506
      ],
      [
       122.4231667,
       10.6832009
      ],
      [
       122.4235867,
       10.6848009
      ],
      [
       122.4229673,
       10.6862584
      ],
      [
       122.4200751,
       10.6892126
      ],
      [
       122.4199091,
       10.6908093
      ],
      [
       122.4204364,
       10.6928707
      ],
      [
       122.422692,
       10.698003
      ],
      [
       122.4223451,
       10.7000914
      ],
      [
       122.4228047,
       10.7037776
      ],
      [
       122.4220424,
       10.7076114
      ],
      [
       122.42237,
       10.7124134
      ],
      [
       122.4244598,
       10.7157638
      ],
      [
       122.424201,
       10.7165866
      ],
      [
       122.4254494,
       10.7205453
      ],
      [
       122.4253013,
       10.7210793
      ],
      [
       122.4275024,
       10.7281883
      ],
      [
       122.4258611,
       10.7307668
      ],
      [
       122.424835,
       10.73069
      ],
      [
       122.4240259,
       10.729666
      ],
      [
       122.4232579,
       10.7292948
      ],
      [
       122.4229897,
       10.7312139
      ],
      [
       122.4220699,
       10.7324168
      ],
      [
       122.4227698,
       10.7333906
      ],
      [
       122.4247188,
       10.7344871
      ],
      [
       122.4258912,
       10.7358858
      ],
      [
       122.424984,
       10.7392869
      ],
      [
       122.4262223,
       10.7422531
      ],
      [
       122.4271209,
       10.7445446
      ],
      [
       122.4256095,
       10.7497374
      ],
      [
       122.4248201,
       10.7494461
      ],
      [
       122.4241471,
       10.7482424
      ],
      [
       122.4228717,
       10.7489876
      ],
      [
       122.4224294,
       10.750083
      ],
      [
       122.4232798,
       10.7513931
      ],
      [
       122.4232274,
       10.7518833
      ],
      [
       122.4211719,
       10.753093
      ]
     ]
    ]
   }
  },
  {
   "type": "Feature",
   "properties": {
    "name": "San Miguel",
    "osm_id": 104060,
    "admin_level": "8",
    "region": "iloilo",
    "franchise": "MORE"
   },
   "geometry": {
    "type": "Polygon",
    "coordinates": [
     [
      [
       120.9858066,
       14.595329
      ],
      [
       120.9859933,
       14.595335
      ],
      [
       120.9861836,
       14.5953208
      ],
      [
       120.9868221,
       14.5951854
      ],
      [
       120.9879365,
       14.5944759
      ],
      [
       120.9883195,
       14.5941907
      ],
      [
       120.9887241,
       14.5937798
      ],
      [
       120.9889747,
       14.5935404
      ],
      [
       120.9892386,
       14.5933661
      ],
      [
       120.9895865,
       14.59326
      ],
      [
       120.990114,
       14.5933463
      ],
      [
       120.9902698,
       14.5934202
      ],
      [
       120.9903819,
       14.5935236
      ],
      [
       120.9904518,
       14.5936195
      ],
      [
       120.990508,
       14.5937744
      ],
      [
       120.9905852,
       14.5939654
      ],
      [
       120.9907815,
       14.594523
      ],
      [
       120.9910443,
       14.595434
      ],
      [
       120.9909508,
       14.5959884
      ],
      [
       120.9909162,
       14.5962872
      ],
      [
       120.9907992,
       14.596434
      ],
      [
       120.9907382,
       14.5965981
      ],
      [
       120.9906459,
       14.5967601
      ],
      [
       120.9905551,
       14.5971665
      ],
      [
       120.9905292,
       14.5973302
      ],
      [
       120.9906352,
       14.5977261
      ],
      [
       120.9906804,
       14.5980546
      ],
      [
       120.9907862,
       14.5982233
      ],
      [
       120.9909425,
       14.5985559
      ],
      [
       120.9910157,
       14.5988663
      ],
      [
       120.9910785,
       14.5992472
      ],
      [
       120.9911468,
       14.5995393
      ],
      [
       120.9912341,
       14.5998413
      ],
      [
       120.9913208,
       14.6000825
      ],
      [
       120.9914494,
       14.600414
      ],
      [
       120.9915382,
       14.6005279
      ],
      [
       120.9916562,
       14.6006473
      ],
      [
       120.9918284,
       14.6006939
      ],
      [
       120.9920134,
       14.600686
      ],
      [
       120.9921337,
       14.600648
      ],
      [
       120.9925149,
       14.6005081
      ],
      [
       120.9929957,
       14.6006274
      ],
      [
       120.9930635,
       14.6006513
      ],
      [
       120.9934896,
       14.6008016
      ],
      [
       120.9935972,
       14.6008144
      ],
      [
       120.9936988,
       14.6007942
      ],
      [
       120.9938163,
       14.6006848
      ],
      [
       120.9939573,
       14.6004469
      ],
      [
       120.9940876,
       14.6003134
      ],
      [
       120.994498,
       14.600233
      ],
      [
       120.9947238,
       14.6002041
      ],
      [
       120.9951316,
       14.6002025
      ],
      [
       120.9955007,
       14.6002025
      ],
      [
       120.995674,
       14.6000826
      ],
      [
       120.9958044,
       14.599902
      ],
      [
       120.9960618,
       14.599421
      ],
      [
       120.9961611,
       14.5995008
      ],
      [
       120.9962346,
       14.5995186
      ],
      [
       120.9963839,
       14.5995319
      ],
      [
       120.9968478,
       14.5995341
      ],
      [
       120.9969466,
       14.5995497
      ],
      [
       120.9969764,
       14.5995964
      ],
      [
       120.9969673,
       14.5997431
      ],
      [
       120.9970109,
       14.599972
      ],
      [
       120.9971051,
       14.6000854
      ],
      [
       120.997236,
       14.6001587
      ],
      [
       120.99736,
       14.6001631
      ],
      [
       120.9974909,
       14.6001254
      ],
      [
       120.997608,
       14.6000587
      ],
      [
       120.9978216,
       14.6000031
      ],
      [
       120.9979112,
       14.6000031
      ],
      [
       120.9979893,
       14.6000942
      ],
      [
       120.9980054,
       14.6002921
      ],
      [
       120.9980261,
       14.6004499
      ],
      [
       120.9980674,
       14.6005432
      ],
      [
       120.9981432,
       14.6005743
      ],
      [
       120.9982328,
       14.6005743
      ],
      [
       120.9983223,
       14.6004743
      ],
      [
       120.9984464,
       14.6002698
      ],
      [
       120.9985199,
       14.6002343
      ],
      [
       120.9986577,
       14.6002632
      ],
      [
       120.9988751,
       14.6003706
      ],
      [
       120.9990573,
       14.6005085
      ],
      [
       120.9992558,
       14.6007551
      ],
      [
       120.9993232,
       14.6009747
      ],
      [
       120.9993448,
       14.601163
      ],
      [
       120.9997795,
       14.6003198
      ],
      [
       121.000641,
       14.5985591
      ],
      [
       121.0008502,
       14.5981831
      ],
      [
       121.0010785,
       14.5977346
      ],
      [
       121.0012112,
       14.5974536
      ],
      [
       121.0013297,
       14.5970428
      ],
      [
       121.0013687,
       14.5967973
      ],
      [
       121.0014246,
       14.5958877
      ],
      [
       121.0008447,
       14.5959986
      ],
      [
       121.0001814,
       14.5962594
      ],
      [
       120.9995656,
       14.5965586
      ],
      [
       120.9991564,
       14.5966601
      ],
      [
       120.9990909,
       14.5966627
      ],
      [
       120.9985353,
       14.5966841
      ],
      [
       120.9981063,
       14.5966036
      ],
      [
       120.9976724,
       14.5963593
      ],
      [
       120.9973291,
       14.5960958
      ],
      [
       120.9962409,
       14.5951773
      ],
      [
       120.9959451,
       14.5948795
      ],
      [
       120.9957133,
       14.5945642
      ],
      [
       120.9953981,
       14.5938504
      ],
      [
       120.9946815,
       14.592735
      ],
      [
       120.9940389,
       14.5920311
      ],
      [
       120.9933873,
       14.5915717
      ],
      [
       120.9928282,
       14.5912614
      ],
      [
       120.9914379,
       14.5902686
      ],
      [
       120.9905321,
       14.5897209
      ],
      [
       120.9896837,
       14.58955
      ],
      [
       120.9890726,
       14.5895968
      ],
      [
       120.9885973,
       14.5897574
      ],
      [
       120.9881899,
       14.589816
      ],
      [
       120.9877513,
       14.589879
      ],
      [
       120.9873827,
       14.5900011
      ],
      [
       120.9870985,
       14.5901995
      ],
      [
       120.9866877,
       14.5906267
      ],
      [
       120.9863064,
       14.590906
      ],
      [
       120.9862513,
       14.5913461
      ],
      [
       120.9853583,
       14.5918129
      ],
      [
       120.9847494,
       14.5922912
      ],
      [
       120.9837548,
       14.5932632
      ],
      [
       120.9831481,
       14.5940748
      ],
      [
       120.9827719,
       14.5947242
      ],
      [
       120.9834747,
       14.5949777
      ],
      [
       120.9843629,
       14.5954658
      ],
      [
       120.984541,
       14.595438
      ],
      [
       120.9848824,
       14.5953847
      ],
      [
       120.9854439,
       14.5952199
      ],
      [
       120.9858066,
       14.595329
      ]
     ]
    ]
   }
  }
 ]
}