{
 "type": "FeatureCollection",
 "properties": {
  "region": "legazpi",
  "franchise": "ALECO",
  "source": "OpenStreetMap via Overpass API",
  "license": "ODbL"
 },
 "features": [
  {
   "type": "Feature",
   "properties": {
    "name": "Legazpi",
    "osm_id": 3488060,
    "admin_level": "6",
    "region": "legazpi",
    "franchise": "ALECO"
   },
   "geometry": {
    "type": "Polygon",
    "coordinates": [
     [
      [
       123.7147872,
       13.0405543
      ],
      [
       123.7171108,
       13.0402423
      ],
      [
       123.7240893,
       13.0411622
      ],
      [
       123.7229238,
       13.0446027
      ],
      [
       123.7213184,
       13.0506447
      ],
      [
       123.7200245,
       13.0549861
      ],
      [
       123.7192421,
       13.0582066
      ],
      [
       123.7185791,
       13.0641299
      ],
      [
       123.7176989,
       13.0710087
      ],
      [
       123.7178784,
       13.0752012
      ],
      [
       123.71642,
       13.0984496
      ],
      [
       123.7162564,
       13.1075527
      ],
      [
       123.7167547,
       13.117573
      ],
      [
       123.7157918,
       13.1195437
      ],
      [
       123.7150516,
       13.12183
      ],
      [
       123.7150047,
       13.1221312
      ],
      [
       123.7150755,
       13.1232411
      ],
      [
       123.7159397,
       13.1242182
      ],
      [
       123.7206984,
       13.1324706
      ],
      [
       123.7196788,
       13.1421763
      ],
      [
       123.7235032,
       13.1449743
      ],
      [
       123.7268655,
       13.1481261
      ],
      [
       123.7271335,
       13.1485896
      ],
      [
       123.7270132,
       13.1498272
      ],
      [
       123.7278083,
       13.1505173
      ],
      [
       123.7272597,
       13.151024
      ],
      [
       123.7268623,
       13.1510617
      ],
      [
       123.7261271,
       13.1511534
      ],
      [
       123.7250988,
       13.1521288
      ],
      [
       123.7279919,
       13.1541981
      ],
      [
       123.7275392,
       13.1586502
      ],
      [
       123.7275717,
       13.1629127
      ],
      [
       123.7274431,
       13.1637153
      ],
      [
       123.7288776,
       13.1659878
      ],
      [
       123.7250441,
       13.1713035
      ],
      [
       123.7218982,
       13.1751286
      ],
      [
       123.7203166,
       13.1777954
      ],
      [
       123.7134102,
       13.1824783
      ],
      [
       123.7087824,
       13.2055477
      ],
      [
       123.7073243,
       13.2152604
      ],
      [
       123.6861783,
       13.2555075
      ],
      [
       123.7338601,
       13.2257896
      ],
      [
       123.7349041,
       13.225085
      ],
      [
       123.7350207,
       13.2250139
      ],
      [
       123.7351836,
       13.2249339
      ],
      [
       123.7354196,
       13.2249252
      ],
      [
       123.7356497,
       13.2249163
      ],
      [
       123.7357979,
       13.224875
      ],
      [
       123.73595,
       13.2247793
      ],
      [
       123.7360171,
       13.2246892
      ],
      [
       123.7361143,
       13.22454
      ],
      [
       123.7362012,
       13.2244431
      ],
      [
       123.7362635,
       13.2243148
      ],
      [
       123.736359,
       13.2242397
      ],
      [
       123.736418,
       13.2241161
      ],
      [
       123.7365128,
       13.2239791
      ],
      [
       123.7366333,
       13.2238621
      ],
      [
       123.7367528,
       13.223651
      ],
      [
       123.7368647,
       13.2235546
      ],
      [
       123.7369871,
       13.2235162
      ],
      [
       123.7371044,
       13.2234605
      ],
      [
       123.7371752,
       13.223314
      ],
      [
       123.7372606,
       13.2230724
      ],
      [
       123.7374048,
       13.2228556
      ],
      [
       123.7375281,
       13.2227988
      ],
      [
       123.737705,
       13.2227744
      ],
      [
       123.7379144,
       13.2227933
      ],
      [
       123.7379941,
       13.2228038
      ],
      [
       123.7381168,
       13.2227759
      ],
      [
       123.738259,
       13.2227011
      ],
      [
       123.7383962,
       13.2224699
      ],
      [
       123.7384886,
       13.222403
      ],
      [
       123.7386794,
       13.2223395
      ],
      [
       123.7388006,
       13.2222728
      ],
      [
       123.7388852,
       13.2221737
      ],
      [
       123.7393732,
       13.2221542
      ],
      [
       123.7400384,
       13.2219871
      ],
      [
       123.7403978,
       13.2218148
      ],
      [
       123.7407197,
       13.2214962
      ],
      [
       123.741063,
       13.2212874
      ],
      [
       123.741519,
       13.2210106
      ],
      [
       123.7418084,
       13.2208539
      ],
      [
       123.7420337,
       13.2207442
      ],
      [
       123.7422429,
       13.220504
      ],
      [
       123.7424628,
       13.2203578
      ],
      [
       123.7426399,
       13.2202742
      ],
      [
       123.7429135,
       13.2202586
      ],
      [
       123.7431978,
       13.2202586
      ],
      [
       123.7434767,
       13.2202272
      ],
      [
       123.7437074,
       13.2201124
      ],
      [
       123.7439917,
       13.2201855
      ],
      [
       123.7443082,
       13.2203474
      ],
      [
       123.7448393,
       13.2202171
      ],
      [
       123.7456989,
       13.2197114
      ],
      [
       123.7468456,
       13.2190368
      ],
      [
       123.7474357,
       13.2186817
      ],
      [
       123.7476824,
       13.2184102
      ],
      [
       123.7479077,
       13.2181281
      ],
      [
       123.7481371,
       13.2175807
      ],
      [
       123.7482403,
       13.2173344
      ],
      [
       123.7486051,
       13.2170001
      ],
      [
       123.7490718,
       13.2166918
      ],
      [
       123.7493132,
       13.2164776
      ],
      [
       123.749619,
       13.2162374
      ],
      [
       123.7498336,
       13.2160912
      ],
      [
       123.7501136,
       13.215891
      ],
      [
       123.7502695,
       13.2157801
      ],
      [
       123.7503972,
       13.2156985
      ],
      [
       123.7505736,
       13.2156108
      ],
      [
       123.7507611,
       13.2155361
      ],
      [
       123.7509118,
       13.2154571
      ],
      [
       123.751003,
       13.2154107
      ],
      [
       123.7511788,
       13.2153535
      ],
      [
       123.751311,
       13.2153193
      ],
      [
       123.7514408,
       13.2152924
      ],
      [
       123.7515342,
       13.2152586
      ],
      [
       123.7516608,
       13.2151958
      ],
      [
       123.7518121,
       13.2151204
      ],
      [
       123.7518899,
       13.2150845
      ],
      [
       123.7520366,
       13.2150062
      ],
      [
       123.7522147,
       13.2148956
      ],
      [
       123.7523482,
       13.2148091
      ],
      [
       123.7524648,
       13.214751
      ],
      [
       123.7525639,
       13.2146712
      ],
      [
       123.752699,
       13.2145726
      ],
      [
       123.7528409,
       13.2144894
      ],
      [
       123.7530286,
       13.2144498
      ],
      [
       123.7531722,
       13.214451
      ],
      [
       123.7533008,
       13.2144677
      ],
      [
       123.7534292,
       13.2144195
      ],
      [
       123.7535935,
       13.2143789
      ],
      [
       123.7537619,
       13.2143423
      ],
      [
       123.7538858,
       13.2143519
      ],
      [
       123.7539793,
       13.2143629
      ],
      [
       123.7540759,
       13.2143345
      ],
      [
       123.7541885,
       13.2143214
      ],
      [
       123.7542647,
       13.2142749
      ],
      [
       123.7544024,
       13.2142199
      ],
      [
       123.7545392,
       13.2141128
      ],
      [
       123.7546892,
       13.2140278
      ],
      [
       123.7548255,
       13.2139665
      ],
      [
       123.7549064,
       13.2139144
      ],
      [
       123.7549857,
       13.2138589
      ],
      [
       123.7550851,
       13.2137732
      ],
      [
       123.7551912,
       13.2136724
      ],
      [
       123.7553737,
       13.2135929
      ],
      [
       123.7556164,
       13.2134711
      ],
      [
       123.7559295,
       13.2133165
      ],
      [
       123.7561981,
       13.2131701
      ],
      [
       123.7563634,
       13.2130902
      ],
      [
       123.7565349,
       13.2130044
      ],
      [
       123.7566267,
       13.2129682
      ],
      [
       123.7567038,
       13.2129442
      ],
      [
       123.7567617,
       13.2128863
      ],
      [
       123.7567976,
       13.2127488
      ],
      [
       123.7567979,
       13.2125905
      ],
      [
       123.7567965,
       13.2124705
      ],
      [
       123.756807,
       13.2123159
      ],
      [
       123.7568903,
       13.2121746
      ],
      [
       123.756959,
       13.2120545
      ],
      [
       123.7570291,
       13.2119768
      ],
      [
       123.7570785,
       13.2119316
      ],
      [
       123.7571839,
       13.2118756
      ],
      [
       123.7573215,
       13.2118702
      ],
      [
       123.7574286,
       13.211882
      ],
      [
       123.7575771,
       13.2118976
      ],
      [
       123.7577876,
       13.2118558
      ],
      [
       123.7579499,
       13.2117905
      ],
      [
       123.7580974,
       13.2117044
      ],
      [
       123.7581753,
       13.2116652
      ],
      [
       123.7582925,
       13.2116345
      ],
      [
       123.758414,
       13.2115777
      ],
      [
       123.7584821,
       13.2115373
      ],
      [
       123.7586244,
       13.2114941
      ],
      [
       123.758752,
       13.2114395
      ],
      [
       123.7589336,
       13.2114374
      ],
      [
       123.7591558,
       13.2114312
      ],
      [
       123.7594424,
       13.2113858
      ],
      [
       123.7596791,
       13.2114819
      ],
      [
       123.7600086,
       13.2113585
      ],
      [
       123.7603697,
       13.2113585
      ],
      [
       123.760954,
       13.2110098
      ],
      [
       123.7615494,
       13.210639
      ],
      [
       123.7617801,
       13.2103204
      ],
      [
       123.7617962,
       13.2102473
      ],
      [
       123.7621664,
       13.2102212
      ],
      [
       123.7624399,
       13.210169
      ],
      [
       123.7625687,
       13.2101429
      ],
      [
       123.762735,
       13.2102316
      ],
      [
       123.7629013,
       13.2099705
      ],
      [
       123.763191,
       13.2095841
      ],
      [
       123.7632875,
       13.2093804
      ],
      [
       123.7633573,
       13.2090931
      ],
      [
       123.7634645,
       13.2089051
      ],
      [
       123.7639207,
       13.2086804
      ],
      [
       123.7701556,
       13.2051274
      ],
      [
       123.8079925,
       13.1807399
      ],
      [
       123.8189298,
       13.1764716
      ],
      [
       123.8200519,
       13.16523
      ],
      [
       123.816923,
       13.1398387
      ],
      [
       123.8099734,
       13.1150205
      ],
      [
       123.8070336,
       13.0945453
      ],
      [
       123.7969287,
       13.0803102
      ],
      [
       123.7962213,
       13.0649698
      ],
      [
       123.8112247,
       13.0540993
      ],
      [
       123.812099,
       13.0516394
      ],
      [
       123.8639699,
       13.0423549
      ],
      [
       123.8402222,
       13.0355939
      ],
      [
       123.824308,
       13.0261199
      ],
      [
       123.8238113,
       13.0259431
      ],
      [
       123.8169199,
       13.0234897
      ],
      [
       123.809943,
       13.0222757
      ],
      [
       123.8002085,
       13.0154483
      ],
      [
       123.797299,
       13.0110114
      ],
      [
       123.7855258,
       13.0013363
      ],
      [
       123.7770981,
       12.9924318
      ],
      [
       123.7742333,
       12.9905049
      ],
      [
       123.7696148,
       12.9873985
      ],
      [
       123.7665198,
       12.9874905
      ],
      [
       123.7626849,
       12.9976535
      ],
      [
       123.7510522,
       12.9976192
      ],
      [
       123.7461622,
       12.9970438
      ],
      [
       123.7431864,
       13.0051484
      ],
      [
       123.7379275,
       13.0135639
      ],
      [
       123.7352614,
       13.0220265
      ],
      [
       123.7341412,
       13.0266074
      ],
      [
       123.7226773,
       13.0296657
      ],
      [
       123.72142,
       13.0374012
      ],
      [
       123.7147872,
       13.0405543
      ]
     ]
    ]
   }
  },
  {
   "type": "Feature",
   "properties": {
    "name": "Daraga",
    "osm_id": 15036784,
    "admin_level": "6",
    "region": "legazpi",
    "franchise": "ALECO"
   },
   "geometry": {
    "type": "Polygon",
    "coordinates": [
     [
      [
       123.6861783,
       13.2555075
      ],
      [
       123.7073243,
       13.2152604
      ],
      [
       123.7087824,
       13.2055477
      ],
      [
       123.7134102,
       13.1824783
      ],
      [
       123.7203166,
       13.1777954
      ],
      [
       123.7218982,
       13.1751286
      ],
      [
       123.7250441,
       13.1713035
      ],
      [
       123.7288776,
       13.1659878
      ],
      [
       123.7274431,
       13.1637153
      ],
      [
       123.7275717,
       13.1629127
      ],
      [
       123.7275392,
       13.1586502
      ],
      [
       123.7279919,
       13.1541981
      ],
      [
       123.7250988,
       13.1521288
      ],
      [
       123.7261271,
       13.1511534
      ],
      [
       123.7268623,
       13.1510617
      ],
      [
       123.7272597,
       13.151024
      ],
      [
       123.7278083,
       13.1505173
      ],
      [
       123.7270132,
       13.1498272
      ],
      [
       123.7271335,
       13.1485896
      ],
      [
       123.7268655,
       13.1481261
      ],
      [
       123.7235032,
       13.1449743
      ],
      [
       123.7196788,
       13.1421763
      ],
      [
       123.7206984,
       13.1324706
      ],
      [
       123.7159397,
       13.1242182
      ],
      [
       123.7150755,
       13.1232411
      ],
      [
       123.7150047,
       13.1221312
      ],
      [
       123.7150516,
       13.12183
      ],
      [
       123.7157918,
       13.1195437
      ],
      [
       123.7167547,
       13.117573
      ],
      [
       123.7162564,
       13.1075527
      ],
      [
       123.71642,
       13.0984496
      ],
      [
       123.7178784,
       13.0752012
      ],
      [
       123.7176989,
       13.0710087
      ],
      [
       123.7185791,
       13.0641299
      ],
      [
       123.7192421,
       13.0582066
      ],
      [
       123.7200245,
       13.0549861
      ],
      [
       123.7213184,
       13.0506447
      ],
      [
       123.7229238,
       13.0446027
      ],
      [
       123.7240893,
       13.0411622
      ],
      [
       123.7171108,
       13.0402423
      ],
      [
       123.7147872,
       13.0405543
      ],
      [
       123.7116924,
       13.0401466
      ],
      [
       123.6898231,
       13.0364857
      ],
      [
       123.6770366,
       13.0304451
      ],
      [
       123.6619766,
       13.0218428
      ],
      [
       123.6559605,
       13.0188345
      ],
      [
       123.6411384,
       13.0137551
      ],
      [
       123.6336056,
       13.0112414
      ],
      [
       123.6314094,
       13.0108671
      ],
      [
       123.6310366,
       13.0108194
      ],
      [
       123.6280185,
       13.0108038
      ],
      [
       123.6325297,
       13.0397234
      ],
      [
       123.6830211,
       13.0674679
      ],
      [
       123.672005,
       13.0723543
      ],
      [
       123.6709838,
       13.0844213
      ],
      [
       123.6710526,
       13.0877248
      ],
      [
       123.6711382,
       13.0901299
      ],
      [
       123.6713527,
       13.1002035
      ],
      [
       123.6713527,
       13.1063478
      ],
      [
       123.6714752,
       13.1095531
      ],
      [
       123.6715077,
       13.1110379
      ],
      [
       123.6714214,
       13.1125421
      ],
      [
       123.6711784,
       13.1137106
      ],
      [
       123.6706988,
       13.1150386
      ],
      [
       123.6679301,
       13.1203426
      ],
      [
       123.6664909,
       13.1231458
      ],
      [
       123.6647695,
       13.1262591
      ],
      [
       123.6645061,
       13.126744
      ],
      [
       123.6776018,
       13.1985015
      ],
      [
       123.6772337,
       13.19958
      ],
      [
       123.6771365,
       13.2004117
      ],
      [
       123.6769957,
       13.2016097
      ],
      [
       123.6769905,
       13.2028127
      ],
      [
       123.6768915,
       13.2037163
      ],
      [
       123.6767507,
       13.2045336
      ],
      [
       123.676782,
       13.204899
      ],
      [
       123.6769332,
       13.2054371
      ],
      [
       123.6771522,
       13.2071731
      ],
      [
       123.6771887,
       13.2081376
      ],
      [
       123.6770322,
       13.2089396
      ],
      [
       123.6766985,
       13.2095741
      ],
      [
       123.6762501,
       13.2101426
      ],
      [
       123.6760311,
       13.2108431
      ],
      [
       123.6758643,
       13.211701
      ],
      [
       123.6758382,
       13.2126857
      ],
      [
       123.6757496,
       13.2133913
      ],
      [
       123.6755378,
       13.2138037
      ],
      [
       123.6755552,
       13.2139792
      ],
      [
       123.6756952,
       13.2143132
      ],
      [
       123.6758758,
       13.2147307
      ],
      [
       123.6759345,
       13.2149328
      ],
      [
       123.6758803,
       13.2152405
      ],
      [
       123.6758938,
       13.2155525
      ],
      [
       123.6760157,
       13.2157767
      ],
      [
       123.676273,
       13.2162381
      ],
      [
       123.6765394,
       13.2166512
      ],
      [
       123.6766161,
       13.2171523
      ],
      [
       123.6769457,
       13.2175346
      ],
      [
       123.6774513,
       13.2179257
      ],
      [
       123.6776364,
       13.2182817
      ],
      [
       123.6776048,
       13.2186157
      ],
      [
       123.6776454,
       13.2188267
      ],
      [
       123.6779073,
       13.2191695
      ],
      [
       123.6781375,
       13.2195518
      ],
      [
       123.6784986,
       13.2200572
      ],
      [
       123.6787289,
       13.2207164
      ],
      [
       123.6790675,
       13.2210548
      ],
      [
       123.6790991,
       13.221279
      ],
      [
       123.6791442,
       13.2215339
      ],
      [
       123.679248,
       13.2217228
      ],
      [
       123.6793699,
       13.2221491
      ],
      [
       123.6794738,
       13.2226238
      ],
      [
       123.6798304,
       13.2233313
      ],
      [
       123.6798611,
       13.223612
      ],
      [
       123.6798117,
       13.2238474
      ],
      [
       123.6797054,
       13.224202
      ],
      [
       123.6796492,
       13.2245223
      ],
      [
       123.6797356,
       13.2250057
      ],
      [
       123.679854,
       13.2252532
      ],
      [
       123.6800016,
       13.2254122
      ],
      [
       123.6801503,
       13.2257243
      ],
      [
       123.6800826,
       13.2260673
      ],
      [
       123.6798259,
       13.2265966
      ],
      [
       123.6796634,
       13.2267812
      ],
      [
       123.679555,
       13.2271433
      ],
      [
       123.6796273,
       13.2274711
      ],
      [
       123.6796273,
       13.2279589
      ],
      [
       123.6795821,
       13.2282578
      ],
      [
       123.6796724,
       13.2284863
      ],
      [
       123.6797085,
       13.2286972
      ],
      [
       123.6797085,
       13.2289082
      ],
      [
       123.6796236,
       13.2293291
      ],
      [
       123.6794638,
       13.2296447
      ],
      [
       123.6793618,
       13.2300842
      ],
      [
       123.6795206,
       13.2306001
      ],
      [
       123.6798123,
       13.2311967
      ],
      [
       123.6797937,
       13.2316309
      ],
      [
       123.679556,
       13.2323254
      ],
      [
       123.6795751,
       13.2326474
      ],
      [
       123.6797052,
       13.2330669
      ],
      [
       123.679754,
       13.2336764
      ],
      [
       123.6861783,
       13.2555075
      ]
     ]
    ]
   }
  },
  {
   "type": "Feature",
   "properties": {
    "name": "Tabaco",
    "osm_id": 8401084,
    "admin_level": "6",
    "region": "legazpi",
    "franchise": "ALECO"
   },
   "geometry": {
    "type": "Polygon",
    "coordinates": [
     [
      [
       123.7274909,
       13.3858517
      ],
      [
       123.7340183,
       13.388687
      ],
      [
       123.7401257,
       13.391521
      ],
      [
       123.7461933,
       13.3941432
      ],
      [
       123.7431519,
       13.3993347
      ],
      [
       123.7411815,
       13.405227
      ],
      [
       123.7406635,
       13.4124513
      ],
      [
       123.7411245,
       13.4309231
      ],
      [
       123.7478769,
       13.4534922
      ],
      [
       123.7640864,
       13.4842192
      ],
      [
       123.8032233,
       13.5374484
      ],
      [
       123.8033284,
       13.5374225
      ],
      [
       123.8083297,
       13.5359928
      ],
      [
       123.8132721,
       13.5343813
      ],
      [
       123.8134243,
       13.5343286
      ],
      [
       123.8184201,
       13.5324913
      ],
      [
       123.8188791,
       13.5323026
      ],
      [
       123.8196514,
       13.5321078
      ],
      [
       123.824658,
       13.5306472
      ],
      [
       123.8296045,
       13.5290041
      ],
      [
       123.8326032,
       13.5278837
      ],
      [
       123.8326275,
       13.5278767
      ],
      [
       123.8374211,
       13.526412
      ],
      [
       123.8421569,
       13.5247793
      ],
      [
       123.8438042,
       13.5241453
      ],
      [
       123.8450269,
       13.5238394
      ],
      [
       123.8510379,
       13.5220497
      ],
      [
       123.8511203,
       13.5220232
      ],
      [
       123.8559113,
       13.5203852
      ],
      [
       123.8606374,
       13.5185777
      ],
      [
       123.8652921,
       13.5166032
      ],
      [
       123.8698694,
       13.5144642
      ],
      [
       123.874363,
       13.5121638
      ],
      [
       123.8787669,
       13.5097049
      ],
      [
       123.8830753,
       13.5070908
      ],
      [
       123.8831524,
       13.5070421
      ],
      [
       123.8875849,
       13.5041156
      ],
      [
       123.8895996,
       13.5029826
      ],
      [
       123.8942325,
       13.5001339
      ],
      [
       123.894553,
       13.4999281
      ],
      [
       123.8971586,
       13.4981763
      ],
      [
       123.8981761,
       13.4978226
      ],
      [
       123.9032718,
       13.4958273
      ],
      [
       123.908282,
       13.4936372
      ],
      [
       123.9131991,
       13.4912559
      ],
      [
       123.9180153,
       13.4886871
      ],
      [
       123.9189999,
       13.488137
      ],
      [
       123.9236262,
       13.4854344
      ],
      [
       123.9281407,
       13.4825588
      ],
      [
       123.9325368,
       13.4795145
      ],
      [
       123.9325716,
       13.4794894
      ],
      [
       123.936838,
       13.4762844
      ],
      [
       123.9409731,
       13.4729206
      ],
      [
       123.9445318,
       13.4697891
      ],
      [
       123.9306355,
       13.4458638
      ],
      [
       123.9017728,
       13.4109455
      ],
      [
       123.857427,
       13.3719663
      ],
      [
       123.8449385,
       13.3559342
      ],
      [
       123.8393764,
       13.3459549
      ],
      [
       123.8356738,
       13.3424964
      ],
      [
       123.7413008,
       13.3350391
      ],
      [
       123.7396361,
       13.3349216
      ],
      [
       123.7357466,
       13.3347943
      ],
      [
       123.7304201,
       13.3356786
      ],
      [
       123.7276296,
       13.3361419
      ],
      [
       123.7239641,
       13.3361578
      ],
      [
       123.7191317,
       13.3345596
      ],
      [
       123.7154465,
       13.3307607
      ],
      [
       123.7094163,
       13.3308761
      ],
      [
       123.7081742,
       13.3294469
      ],
      [
       123.7068587,
       13.3230734
      ],
      [
       123.7047968,
       13.3170211
      ],
      [
       123.7047895,
       13.3169931
      ],
      [
       123.7037784,
       13.3131391
      ],
      [
       123.7026715,
       13.3095149
      ],
      [
       123.6861783,
       13.2555075
      ],
      [
       123.6346303,
       13.2980028
      ],
      [
       123.6343253,
       13.2986715
      ],
      [
       123.6339122,
       13.2993216
      ],
      [
       123.6144151,
       13.3217312
      ],
      [
       123.6048405,
       13.3330347
      ],
      [
       123.6151095,
       13.3473511
      ],
      [
       123.6193674,
       13.3465132
      ],
      [
       123.6206897,
       13.3464588
      ],
      [
       123.6215849,
       13.3467389
      ],
      [
       123.6221863,
       13.3471752
      ],
      [
       123.622996,
       13.3474285
      ],
      [
       123.6247386,
       13.34724
      ],
      [
       123.625409,
       13.3474801
      ],
      [
       123.6259236,
       13.3479855
      ],
      [
       123.6265477,
       13.3483895
      ],
      [
       123.6267231,
       13.347726
      ],
      [
       123.6269145,
       13.3470023
      ],
      [
       123.6279612,
       13.3459923
      ],
      [
       123.6290927,
       13.3454191
      ],
      [
       123.6298946,
       13.3450853
      ],
      [
       123.6306722,
       13.3449107
      ],
      [
       123.6310097,
       13.3443795
      ],
      [
       123.6310318,
       13.3439605
      ],
      [
       123.6306779,
       13.3411443
      ],
      [
       123.6313182,
       13.3409955
      ],
      [
       123.6333936,
       13.3393484
      ],
      [
       123.6345423,
       13.3374425
      ],
      [
       123.6363391,
       13.3349633
      ],
      [
       123.6380769,
       13.3338742
      ],
      [
       123.643747,
       13.3316243
      ],
      [
       123.6475641,
       13.3317803
      ],
      [
       123.6517735,
       13.3349584
      ],
      [
       123.6549113,
       13.3383942
      ],
      [
       123.6601774,
       13.3415554
      ],
      [
       123.6615876,
       13.3420592
      ],
      [
       123.6639975,
       13.3436745
      ],
      [
       123.664554,
       13.3442536
      ],
      [
       123.665799,
       13.3462778
      ],
      [
       123.6672334,
       13.3476098
      ],
      [
       123.6701406,
       13.3494884
      ],
      [
       123.6713047,
       13.3503323
      ],
      [
       123.6723937,
       13.3489143
      ],
      [
       123.6729498,
       13.348837
      ],
      [
       123.7180953,
       13.3785408
      ],
      [
       123.7252498,
       13.3841079
      ],
      [
       123.7266949,
       13.3852323
      ],
      [
       123.7274909,
       13.3858517
      ]
     ]
    ]
   }
  }
 ]
}